,category,danger,latitude,longitude,name_en,states_name_en,unique_number
0,A,0,43.49,-1.47,Bayonne City Hall,France,0
1,Cultural,0,21.20438889,-99.46411111,Franciscan Missions in the Sierra Gorda of Querétaro,Mexico,1256
2,Cultural,0,18.93472,-98.89778,Earliest 16th-Century Monasteries on the Slopes of Popocatepetl,Mexico,830
3,Cultural,1,6.8397222222,158.3308333333,Nan Madol: Ceremonial Centre of Eastern Micronesia,Micronesia (Federated States of),2093
4,Cultural,0,47.55666667,102.8313889,Orkhon Valley Cultural Landscape,Mongolia,1259
5,Cultural,0,49.3338888889,88.3952777778,Petroglyphic Complexes of the Mongolian Altai,Mongolia,1773
6,Cultural,0,48.7619777778,109.0093277778,Great Burkhan Khaldun Mountain and its surrounding sacred landscape,Mongolia,2018
7,Cultural,0,42.48333,18.7,Natural and Culturo-Historical Region of Kotor,Montenegro,2122
8,Cultural,0,31.5141111111,-9.7703055556,Medina of Essaouira (formerly Mogador),Morocco,888
9,Cultural,0,31.04722,-7.12889,Ksar of Ait-Ben-Haddou,Morocco,515
10,Cultural,0,31.63139,-7.98667,Medina of Marrakesh,Morocco,376
11,Cultural,0,34.06111,-4.97778,Medina of Fez,Morocco,188
12,Cultural,0,34.0241666667,-6.8227777778,"Rabat, Modern Capital and Historic City: a Shared Heritage",Morocco,1825
13,Cultural,0,33.25667,-8.50194,Portuguese City of Mazagan (El Jadida),Morocco,1234
14,Cultural,0,33.88333,-5.55833,Historic City of Meknes,Morocco,937
15,Cultural,0,35.57083,-5.36667,Medina of Tétouan (formerly known as Titawin),Morocco,986
16,Cultural,0,34.07389,-5.55694,Archaeological Site of Volubilis,Morocco,1625
17,Cultural,0,-15.03417,40.73583,Island of Mozambique,Mozambique,709
18,Cultural,0,22.47,95.8186111111,Pyu Ancient Cities,Myanmar,1987
19,Cultural,0,21.1488888889,94.8844444444,Bagan,Myanmar,2283
20,Cultural,0,-20.5955833333,14.3725833333,Twyfelfontein or /Ui-//aes,Namibia,1432
21,Cultural,0,27.46889,83.27611,"Lumbini, the Birthplace of the Lord Buddha",Nepal,788
22,Cultural,0,27.70395,85.30858,Kathmandu Valley ,Nepal,1448
23,Cultural,0,51.8825,4.649444444,Mill Network at Kinderdijk-Elshout,Netherlands,966
24,Cultural,0,52.63861111,5.771666667,Schokland and Surroundings,Netherlands,872
25,Cultural,0,51.9233333333,4.4183333333,Van Nellefabriek,Netherlands,1984
26,Cultural,0,52.37444444,4.893055556,Defence Line of Amsterdam,Netherlands,894
27,Cultural,0,52.84583,5.67889,Ir.D.F. Woudagemaal (D.F. Wouda Steam Pumping Station),Netherlands,1018
28,Cultural,0,19.41833333,-99.19833333,Luis Barragán House and Studio,Mexico,1316
29,Cultural,0,52.0853333333,5.1475555556,Rietveld Schröderhuis (Rietveld Schröder House),Netherlands,1129
30,Cultural,0,22.6080555556,-102.3791666667,Camino Real de Tierra Adentro,Mexico,1691
31,Cultural,0,19.3322222222,-99.1880555555,Central University City Campus of the <i>Universidad Nacional Autónoma de México</i> (UNAM),Mexico,1427
32,Cultural,0,35.90056,14.51444,City of Valletta,Malta,143
33,Cultural,0,36.04908,14.26947,Megalithic Temples of Malta,Malta,2121
34,Cultural,0,11.6,165.3805555556,Bikini Atoll Nuclear Test Site,Marshall Islands,1684
35,Cultural,0,20.92889,-11.62361,"Ancient <I>Ksour</I> of Ouadane, Chinguetti, Tichitt and Oualata",Mauritania,884
36,Cultural,0,-20.1586388889,57.5031666666,Aapravasi Ghat,Mauritius,1404
37,Cultural,0,-20.4519444444,57.3283333333,Le Morne Cultural Landscape,Mauritius,1860
38,Cultural,0,20.66667,-88.6,Pre-Hispanic City of Chichen-Itza,Mexico,562
39,Cultural,0,22.76667,-102.55556,Historic Centre of Zacatecas,Mexico,800
40,Cultural,0,20.9144444444,-100.7463888889,Protective town of San Miguel and the Sanctuary of Jesús Nazareno de Atotonilco,Mexico,1493
41,Cultural,0,19.70444,-101.19167,Historic Centre of Morelia,Mexico,692
42,Cultural,0,20.47639,-97.3775,"El Tajin, Pre-Hispanic City",Mexico,749
43,Cultural,0,20.67388889,-103.3397222,"Hospicio Cabañas, Guadalajara",Mexico,963
44,Cultural,0,19.41833,-99.13278,Historic Centre of Mexico City and Xochimilco,Mexico,475
45,Cultural,0,19.84639,-90.53722,Historic Fortified Town of Campeche,Mexico,1046
46,Cultural,0,19.69167,-98.84167,Pre-Hispanic City of Teotihuacan,Mexico,477
47,Cultural,0,16.9508333333,-96.4211111111,Prehistoric Caves of Yagul and Mitla in the Central Valley of Oaxaca,Mexico,1693
48,Cultural,0,19.04722,-98.20833,Historic Centre of Puebla,Mexico,479
49,Cultural,0,17.06194,-96.72167,Historic Centre of Oaxaca and Archaeological Site of Monte Albán,Mexico,478
50,Cultural,0,30.37583,-107.95556,"Archaeological Zone of Paquimé, Casas Grandes",Mexico,662
51,Cultural,0,21.01694,-101.25556,Historic Town of Guanajuato and Adjacent Mines,Mexico,561
52,Cultural,0,18.60833333,-95.65833333,Historic Monuments Zone of Tlacotalpan,Mexico,1013
53,Cultural,0,18.81028,-99.275,Archaeological Monuments Zone of Xochicalco,Mexico,1094
54,Cultural,0,17.48333,-92.05,Pre-Hispanic City and National Park of Palenque,Mexico,474
55,Cultural,0,19.8352777778,-98.6625666667,Aqueduct of Padre Tembleque Hydraulic System,Mexico,2024
56,Cultural,0,20.58333333,-100.3666667,Historic Monuments Zone of Querétaro,Mexico,936
57,Cultural,0,20.36166667,-89.77027778,Pre-Hispanic Town of Uxmal,Mexico,935
58,Cultural,0,27.65556,-112.91611,Rock Paintings of the Sierra de San Francisco,Mexico,845
59,Cultural,0,20.8630555555,-103.7786111111,Agave Landscape and Ancient Industrial Facilities of Tequila,Mexico,1386
60,Cultural,0,35.87134,14.50739,?al Saflieni Hypogeum,Malta,142
61,Cultural,0,52.365,4.8877777778,Seventeenth-Century Canal Ring Area of Amsterdam inside the Singelgracht,Netherlands,1666
62,Cultural,0,52.54888889,4.911111111,Droogmakerij de Beemster (Beemster Polder),Netherlands,1051
63,Cultural,0,-13.52222,-71.98333,City of Cuzco,Peru,304
64,Cultural,0,-12.05139,-77.04306,Historic Centre of Lima,Peru,583
65,Cultural,0,-10.8916666667,-77.5213888889,Sacred City of Caral-Supe,Peru,1615
66,Cultural,0,-16.4,-71.53333333,Historical Centre of the City of Arequipa,Peru,1186
67,Cultural,0,-14.72583,-75.14861,Lines and Geoglyphs of Nasca and Palpa,Peru,828
68,Cultural,0,16.93389,121.13667,Rice Terraces of the Philippine Cordilleras,Philippines,853
69,Cultural,0,14.59,120.97,Baroque Churches of the Philippines,Philippines,1955
70,Cultural,0,17.575,120.3875,Historic City of Vigan,Philippines,586
71,Cultural,0,54.04166667,19.03333333,Castle of the Teutonic Order in Malbork,Poland,998
72,Cultural,0,49.75,21.23333333,Wooden Churches of Southern Ma?opolska,Poland,1489
73,Cultural,0,50.9679722222,21.5023055556,Krzemionki Prehistoric Striped Flint Mining Region,Poland,2302
74,Cultural,0,51.1069472222,17.0770138888,Centennial Hall in Wroc?aw,Poland,1343
75,Cultural,0,51.05427778,16.19594444,Churches of Peace in Jawor and ?widnica,Poland,1228
76,Cultural,0,50.4426972222,18.8512277778,Tarnowskie Góry Lead-Silver-Zinc Mine and its Underground Water Management System,Poland,2165
77,Cultural,0,50.71667,23.26667,Old City of Zamo??,Poland,666
78,Cultural,0,50.0613888889,19.9372222222,Historic Centre of Kraków,Poland,1739
79,Cultural,0,53.01,18.61944,Medieval Town of Toru?,Poland,984
80,Cultural,0,52.26639,21.01167,Historic Centre of Warsaw,Poland,2068
81,Cultural,0,49.86666667,19.66666667,Kalwaria Zebrzydowska: the Mannerist Architectural and Park Landscape Complex and Pilgrimage Park,Poland,1058
82,Cultural,0,49.9791666667,20.0638888889,Wieliczka and Bochnia Royal Salt Mines,Poland,1854
83,Cultural,0,50.0388888889,19.175,Auschwitz Birkenau <br /><small>German Nazi Concentration and Extermination Camp (1940-1945)</small>,Poland,34
84,Cultural,0,49.5338888889,21.0322222222,Wooden <em>Tserkvas</em> of the Carpathian Region in Poland and Ukraine,Poland,1894
85,Cultural,0,39.55,-8.97667,Monastery of Alcobaça,Portugal,589
86,Cultural,0,40.2078111111,-8.425775,University of Coimbra – Alta and Sofia,Portugal,1899
87,Cultural,0,38.69194,-9.21583,Monastery of the Hieronymites and Tower of Belém in Lisbon,Portugal,1630
88,Cultural,0,38.655,-27.22,Central Zone of the Town of Angra do Heroismo in the Azores,Portugal,227
89,Cultural,0,39.65778,-8.82694,Monastery of Batalha,Portugal,294
90,Cultural,1,-8.1,-79.08333,Chan Chan Archaeological Zone,Peru,419
91,Cultural,0,12.10194,-68.90222,"Historic Area of Willemstad, Inner City and Harbour, Curaçao",Netherlands,967
92,Cultural,0,-9.5927725444,-77.1784535027,Chavin (Archaeological Site),Peru,375
93,Cultural,0,-5.7837111111,144.3317222222,Kuk Early Agricultural Site,Papua New Guinea,1546
94,Cultural,0,12.435,-86.8780555556,León Cathedral,Nicaragua,1789
95,Cultural,0,12.39722,-86.61028,Ruins of León Viejo,Nicaragua,728
96,Cultural,0,16.9736111111,7.9913888889,Historic Centre of Agadez,Niger,1905
97,Cultural,0,10.74056,13.57194,Sukur Cultural Landscape,Nigeria,1093
98,Cultural,0,7.75556,4.55222,Osun-Osogbo Sacred Grove,Nigeria,1298
99,Cultural,0,69.95,23.18333,Rock Art of Alta,Norway,403
100,Cultural,0,59.8786111111,8.5936111111,Rjukan-Notodden Industrial Heritage Site,Norway,2047
101,Cultural,0,61.3,7.33333,Urnes Stave Church,Norway,62
102,Cultural,0,65.61667,11.75,Vegaøyan – The Vega Archipelago,Norway,2254
103,Cultural,0,60.39722,5.32306,Bryggen,Norway,63
104,Cultural,0,62.5738888889,11.3855555556,Røros Mining Town and the Circumference,Norway,1667
105,Cultural,0,22.6952222222,59.3781111111,Ancient City of Qalhat,Oman,2217
106,Cultural,0,18.25333,53.64759,Land of Frankincense,Oman,1180
107,Cultural,0,22.9988888889,57.5360555555,<i>Aflaj</i> Irrigation Systems of Oman,Oman,1384
108,Cultural,0,22.96417,57.30111,Bahla Fort,Oman,502
109,Cultural,0,23.26986,56.745,"Archaeological Sites of Bat, Al-Khutm and Al-Ayn",Oman,503
110,Cultural,0,24.76666667,67.9,"Historical Monuments at Makli, Thatta",Pakistan,158
111,Cultural,0,31.59027778,74.30972222,Fort and Shalamar Gardens in Lahore,Pakistan,189
112,Cultural,0,32.9625,73.58888889,Rohtas Fort,Pakistan,693
113,Cultural,0,34.32083333,71.94583333,Buddhist Ruins of Takht-i-Bahi and Neighbouring City Remains at Sahr-i-Bahlol,Pakistan,154
114,Cultural,0,27.32916667,68.13888889,Archaeological Ruins at Moenjodaro,Pakistan,151
115,Cultural,0,33.77916667,72.8875,Taxila,Pakistan,153
116,Cultural,0,31.7043527778,35.2075,"Birthplace of Jesus: Church of the Nativity and the Pilgrimage Route, Bethlehem",Palestine,1922
117,Cultural,1,31.5241666667,35.1088888889,Hebron/Al-Khalil Old Town,Palestine,2230
118,Cultural,1,31.7197222222,35.1305555556,"Palestine: Land of Olives and Vines – Cultural Landscape of Southern Jerusalem, Battir",Palestine,2012
119,Cultural,1,9.553888889,-79.65583333,Fortifications on the Caribbean Side of Panama: Portobelo-San Lorenzo,Panama,148
120,Cultural,0,8.951111111,-79.54055556,Archaeological Site of Panamá Viejo and Historic District of Panamá,Panama,934
121,Cultural,0,-27.13333,-55.7,Jesuit Missions of La Santísima Trinidad de Paraná and Jesús de Tavarangue,Paraguay,768
122,Cultural,1,16.77333333,-2.999444444,Timbuktu,Mali,131
123,Cultural,1,16.2898,-0.04456,Tomb of Askia,Mali,1320
124,Cultural,1,13.90639,-4.555,Old Towns of Djenné,Mali,127
125,Cultural,0,45.46588889,9.1705,Church and Dominican Convent of Santa Maria delle Grazie with “The Last Supper” by Leonardo da Vinci,Italy,100
126,Cultural,0,46.0941666667,13.4330555556,Longobards in Italy. Places of the Power (568-774 A.D.),Italy,1780
127,Cultural,0,41.08480556,16.27094444,Castel del Monte,Italy,459
128,Cultural,0,39.70583333,8.991388889,Su Nuraxi di Barumini,Italy,982
129,Cultural,0,40.66638889,16.61027778,The Sassi and the Park of the Rupestrian Churches of Matera,Italy,793
130,Cultural,0,37.05944,15.29306,Syracuse and the Rocky Necropolis of Pantalica,Italy,1377
131,Cultural,0,43.31861111,11.33166667,Historic Centre of Siena,Italy,848
132,Cultural,0,45.59333,9.53833,Crespi d'Adda,Italy,862
133,Cultural,0,44.83777778,11.61944444,"Ferrara, City of the Renaissance, and its Po Delta",Italy,867
134,Cultural,0,45.54916667,11.54944444,City of Vicenza and the Palladian Villas of the Veneto,Italy,843
135,Cultural,0,40.7825,17.23694,The <I>Trulli</I> of Alberobello,Italy,930
136,Cultural,0,44.42041667,12.19625,Early Christian Monuments of Ravenna,Italy,931
137,Cultural,0,43.07694444,11.67861111,Historic Centre of the City of Pienza,Italy,932
138,Cultural,0,45.97455556,9.169555556,<I>Sacri Monti</I> of Piedmont and Lombardy,Italy,1245
139,Cultural,0,44.6086111111,7.9636111111,Vineyard Landscape of Piedmont: Langhe-Roero and Monferrato,Italy,1971
140,Cultural,0,45.1594444444,10.7944444444,Mantua and Sabbioneta,Italy,1518
141,Cultural,0,40.85138889,14.26277778,Historic Centre of Naples,Italy,1867
142,Cultural,0,41.96391667,12.79625,"Villa d'Este, Tivoli",Italy,1197
143,Cultural,0,43.06666667,11.55,Val d'Orcia,Italy,1199
144,Cultural,0,45.76833333,13.3675,Archaeological Area and the Patriarchal Basilica of Aquileia,Italy,2319
145,Cultural,0,45.07253,7.68572,Residences of the Royal House of Savoy,Italy,1736
146,Cultural,0,45.43430556,12.33894444,Venice and its Lagoon,Italy,454
147,Cultural,0,36.89319444,15.06891667,Late Baroque Towns of the Val di Noto (South-Eastern Sicily),Italy,1196
148,Cultural,0,43.77306,11.25611,Historic Centre of Florence,Italy,2127
149,Cultural,0,43.8577777778,11.3041666667,Medici Villas and Gardens in Tuscany,Italy,1891
150,Cultural,0,42.00683333,12.10188889,Etruscan Necropolises of Cerveteri and Tarquinia,Italy,1338
151,Cultural,0,43.06616667,12.62244444,"Assisi, the Basilica of San Francesco and Other Franciscan Sites",Italy,1154
152,Cultural,0,41.07333,14.32639,"18th-Century Royal Palace at Caserta with the Park, the Aqueduct of Vanvitelli, and the San Leucio Complex",Italy,646
153,Cultural,0,45.43861111,10.99388889,City of Verona,Italy,942
154,Cultural,0,45.7033333333,9.6636111111,Venetian Works of Defence between the 16th and 17th Centuries: <em>Stato da Terra</em> – Western <em>Stato da Mar</em>,Italy,2162
155,Cultural,0,43.46806,11.04167,Historic Centre of San Gimignano,Italy,647
156,Cultural,0,29.11683,58.3666666667,Bam and its Cultural Landscape,Iran (Islamic Republic of),1564
157,Cultural,0,32.0833,48.53333333,Tchogha Zanbil,Iran (Islamic Republic of),122
158,Cultural,0,38.2486111111,48.2913888889,Sheikh Safi al-din Kh?neg?h and Shrine Ensemble in Ardabil,Iran (Islamic Republic of),1680
159,Cultural,0,29.7774805556,51.57045,Sassanid Archaeological Landscape of Fars Region,Iran (Islamic Republic of),2233
160,Cultural,0,32.1894444444,48.2561111111,Susa,Iran (Islamic Republic of),1999
161,Cultural,0,30.1680555556,55.3755555556,Cultural Landscape of Maymand,Iran (Islamic Republic of),2073
162,Cultural,0,31.9013888889,54.3691666667,Historic City of Yazd,Iran (Islamic Republic of),2148
163,Cultural,0,32.5419694444,44.4208333333,Babylon,Iraq,2293
164,Cultural,1,35.4566666667,43.2611111111,Ashur (Qal'at Sherqat),Iraq,1310
165,Cultural,1,35.58806,42.71833,Hatra,Iraq,309
166,Cultural,1,34.3409894444,43.8235430555,Samarra Archaeological City,Iraq,1456
167,Cultural,0,36.1911111111,44.0091666667,Erbil Citadel,Iraq,1980
168,Cultural,0,51.77194,-10.53861,Sceilg Mhichíl,Ireland,892
169,Cultural,0,53.69167,-6.45,Brú na Bóinne - Archaeological Ensemble of the Bend of the Boyne,Ireland,780
170,Cultural,0,30.54111,35.16083,Incense Route - Desert Cities in the Negev,Israel,1286
171,Cultural,0,31.3135,35.35275,Masada,Israel,1214
172,Cultural,0,32.92833333,35.08388889,Old City of Acre,Israel,1217
173,Cultural,0,32.06666667,34.78333333,White City of Tel-Aviv – the Modern Movement,Israel,1274
174,Cultural,0,32.7022222222,35.1269444444,Necropolis of Bet She’arim: A Landmark of Jewish Renewal,Israel,2032
175,Cultural,0,32.67,34.9652777778,Sites of Human Evolution at Mount Carmel: The Nahal Me’arot / Wadi el-Mughara Caves,Israel,1818
176,Cultural,0,32.59722,35.18222,"Biblical Tels - Megiddo, Hazor, Beer Sheba",Israel,1287
177,Cultural,0,32.8293966667,34.9716488888,Bahá’i Holy Places in Haifa and the Western Galilee,Israel,1581
178,Cultural,0,31.6,34.8955555556,Caves of Maresha and Bet-Guvrin in the Judean Lowlands as a Microcosm of the Land of the Caves,Israel,1969
179,Cultural,0,45.9530277778,12.2261111111,Le Colline del Prosecco di Conegliano e Valdobbiadene,Italy,2327
180,Cultural,0,45.4575,7.8691666667,"Ivrea, industrial city of the 20th century",Italy,2163
181,Cultural,0,38.1108333333,13.3530555556,Arab-Norman Palermo and the Cathedral Churches of Cefalú and Monreale,Italy,2048
182,Cultural,0,44.4122222222,8.9311111111,Genoa: <i>Le Strade Nuove</i> and the system of the<i> Palazzi dei Rolli</i>,Italy,1388
183,Cultural,0,41.89022222,12.49230556,"Historic Centre of Rome, the Properties of the Holy See in that City Enjoying Extraterritorial Rights and San Paolo Fuori le Mura",Italy,2114
184,Cultural,0,41.94416667,12.77197222,Villa Adriana (Tivoli),Italy,1060
185,Cultural,0,43.72305556,10.39638889,"Piazza del Duomo, Pisa",Italy,1558
186,Cultural,0,44.10694,9.72917,"Portovenere, Cinque Terre, and the Islands (Palmaria, Tino and Tinetto)",Italy,975
187,Cultural,0,43.29305556,68.27444444,Mausoleum of Khoja Ahmed Yasawi,Kazakhstan,1281
188,Cultural,0,-0.8913380556,34.326107,Thimlich Ohinga Archaeological Site,Kenya,2312
189,Cultural,0,-3.9319444444,39.5961111111,Sacred Mijikenda Kaya Forests,Kenya,1589
190,Cultural,0,-2.284444444,40.8525,Lamu Old Town,Kenya,1229
191,Cultural,0,-4.0627777778,39.6794444444,"Fort Jesus, Mombasa",Kenya,1847
192,Cultural,0,40.5311111111,72.7827777778,Sulaiman-Too Sacred Mountain,Kyrgyzstan,1699
193,Cultural,0,19.88889,102.13333,Town of Luang Prabang,Lao People's Democratic Republic,1954
194,Cultural,0,14.8483333333,105.8222222222,Vat Phou and Associated Ancient Settlements within the Champasak Cultural Landscape,Lao People's Democratic Republic,560
195,Cultural,0,19.4310555556,103.1522222222,Megalithic Jar Sites in Xiengkhuang – Plain of Jars,Lao People's Democratic Republic,2282
196,Cultural,0,56.95417,24.11667,Historic Centre of Riga,Latvia,1003
197,Cultural,0,34.00707,36.20494,Baalbek,Lebanon,330
198,Cultural,0,33.72583,35.92972,Anjar,Lebanon,329
199,Cultural,0,34.11917,35.6475,Byblos,Lebanon,331
200,Cultural,0,34.24333,36.04889,Ouadi Qadisha (the Holy Valley) and the Forest of the Cedars of God (Horsh Arz el-Rab),Lebanon,1001
201,Cultural,0,33.27194,35.19444,Tyre,Lebanon,335
202,Cultural,1,32.80528,12.485,Archaeological Site of Sabratha,Libya,204
203,Cultural,1,32.825,21.85833,Archaeological Site of Cyrene,Libya,211
204,Cultural,1,24.83333,10.33333,Rock-Art Sites of Tadrart Acacus,Libya,321
205,Cultural,1,30.13333333,9.5,Old Town of Ghadamès,Libya,415
206,Cultural,1,32.63833,14.29306,Archaeological Site of Leptis Magna,Libya,203
207,Cultural,0,54.68667,25.29306,Vilnius Historic Centre,Lithuania,1929
208,Cultural,0,54.88777778,24.83055556,Kernav?  Archaeological Site (Cultural Reserve of Kernav?),Lithuania,1317
209,Cultural,0,49.61,6.13333,City of Luxembourg: its Old Quarters and Fortifications,Luxembourg,827
210,Cultural,0,-18.75917,47.56278,Royal Hill of Ambohimanga,Madagascar,1111
211,Cultural,0,-14.2933333333,34.2791666666,Chongoni Rock-Art Area,Malawi,1450
212,Cultural,0,5.0679083333,100.9723277778,Archaeological Heritage of the Lenggong Valley,Malaysia,1820
213,Cultural,0,5.4213888889,100.3458333333,"Melaka and George Town, Historic Cities of the Straits of Malacca",Malaysia,1871
214,Cultural,0,43.80333333,75.535,Petroglyphs within the Archaeological Landscape of Tamgaly,Kazakhstan,1326
215,Cultural,0,31.8372222222,35.5527777778,Baptism Site “Bethany Beyond the Jordan” (Al-Maghtas),Jordan,2019
216,Cultural,0,31.80194,36.58583,Quseir Amra,Jordan,372
217,Cultural,0,31.50167,35.92056,Um er-Rasas (Kastrom Mefa'a),Jordan,1271
218,Cultural,0,44.64624,10.92568,"Cathedral, Torre Civica and Piazza Grande, Modena",Italy,976
219,Cultural,0,43.725,12.63333,Historic Centre of Urbino,Italy,977
220,Cultural,0,40.75,14.48333333,"Archaeological Areas of Pompei, Herculaneum and Torre Annunziata",Italy,978
221,Cultural,0,37.28972222,13.59333333,Archaeological Area of Agrigento,Italy,980
222,Cultural,0,45.39911111,11.88066667,"Botanical Garden (Orto Botanico), Padua",Italy,973
223,Cultural,0,37.36611,14.33417,Villa Romana del Casale,Italy,981
224,Cultural,0,40.28333333,15.26666667,"Cilento and Vallo di Diano National Park with the Archeological Sites of Paestum and Velia, and the Certosa di Padula",Italy,993
225,Cultural,0,40.65,14.6,Costiera Amalfitana,Italy,979
226,Cultural,0,33.83694444,135.7763889,Sacred Sites and Pilgrimage Routes in the Kii Mountain Range,Japan,2183
227,Cultural,0,34.38333333,132.45,Hiroshima Peace Memorial (Genbaku Dome),Japan,917
228,Cultural,0,36.7475,139.6105556,Shrines and Temples of Nikko,Japan,1066
229,Cultural,0,34.67555556,135.8394444,Historic Monuments of Ancient Nara,Japan,1021
230,Cultural,0,34.29441667,132.3246389,Itsukushima Shinto Shrine,Japan,918
231,Cultural,0,39.60472,-8.4175,Convent of Christ in Tomar,Portugal,295
232,Cultural,0,34.98055556,135.7694444,"Historic Monuments of Ancient Kyoto (Kyoto, Uji and Otsu Cities)",Japan,814
233,Cultural,0,26.20861111,127.6827778,Gusuku Sites and Related Properties of the Kingdom of Ryukyu,Japan,1136
234,Cultural,0,36.4,136.8833333,Historic Villages of Shirakawa-go and Gokayama,Japan,868
235,Cultural,0,34.4305555556,131.4122222222,"Sites of Japan’s Meiji Industrial Revolution: Iron and Steel, Shipbuilding and Coal Mining",Japan,2045
236,Cultural,0,34.5622222222,135.6094444444,Mozu-Furuichi Kofun Group: Mounded Tombs of Ancient Japan,Japan,2284
237,Cultural,0,34.61666667,135.7333333,Buddhist Monuments in the Horyu-ji Area,Japan,781
238,Cultural,0,39.0011111111,141.1077777778,"Hiraizumi – Temples, Gardens and Archaeological Sites Representing the Buddhist Pure Land",Japan,1771
239,Cultural,0,35.3608333333,138.7275,"Fujisan, sacred place and source of artistic inspiration",Japan,1883
240,Cultural,0,32.8022222222,128.9038888889,Hidden Christian Sites in the Nagasaki Region,Japan,2216
241,Cultural,0,34.83333333,134.7,Himeji-jo,Japan,782
242,Cultural,0,34.245,130.1055555556,Sacred Island of Okinoshima and Associated Sites in the Munakata Region ,Japan,2149
243,Cultural,0,36.2552777778,138.8877777778,Tomioka Silk Mill and Related Sites,Japan,1992
244,Cultural,1,31.78333333,35.21666667,Old City of Jerusalem and its Walls,Jerusalem (Site proposed by Jordan),165
245,Cultural,0,30.33056,35.44333,Petra,Jordan,370
246,Cultural,0,35.1127777777,132.435,Iwami Ginzan Silver Mine and its Cultural Landscape,Japan,1737
247,Cultural,0,37.2580277778,55.169,Gonbad-e Q?bus,Iran (Islamic Republic of),1822
248,Cultural,0,38.57306,-7.90778,Historic Centre of Évora,Portugal,414
249,Cultural,0,38.78333,-9.41667,Cultural Landscape of Sintra,Portugal,854
250,Cultural,0,35.29639,10.70694,Amphitheatre of El Jem,Tunisia,1741
251,Cultural,0,36.85278,10.32333,Archaeological Site of Carthage,Tunisia,41
252,Cultural,0,36.42361,9.22028,Dougga / Thugga,Tunisia,938
253,Cultural,0,36.81667,10.16667,Medina of Tunis,Tunisia,1744
254,Cultural,0,40.01389,34.62056,Hattusha: the Hittite Capital,Turkey,432
255,Cultural,0,37.9291666667,27.3594444444,Ephesus,Turkey,2014
256,Cultural,0,36.335,29.32028,Xanthos-Letoon,Turkey,563
257,Cultural,0,38.03661,38.76369,Nemrut Da?,Turkey,520
258,Cultural,0,41.00847,28.97993,Historic Areas of Istanbul,Turkey,2255
259,Cultural,0,41.26,32.68972,City of Safranbolu,Turkey,729
260,Cultural,0,39.371271,38.121826,Great Mosque and Hospital of Divri?i,Turkey,411
261,Cultural,0,37.9031,40.2393083333,Diyarbak?r Fortress and Hevsel Gardens Cultural Landscape,Turkey,2049
262,Cultural,0,37.2232419444,38.9223638889,Göbekli Tepe,Turkey,2237
263,Cultural,0,37.7083333333,28.7236111111,Aphrodisias,Turkey,2170
264,Cultural,0,40.5,43.5666666667,Archaeological Site of Ani,Turkey,2110
265,Cultural,0,39.1258333333,27.18,Pergamon and its Multi-Layered Cultural Landscape,Turkey,2001
266,Cultural,0,40.1847305556,29.0623361111,Bursa and Cumal?k?z?k: the Birth of the Ottoman Empire,Turkey,1995
267,Cultural,0,37.6666666667,32.8280555556,Neolithic Site of Çatalhöyük,Turkey,1829
268,Cultural,0,41.6777777778,26.5594444444,Selimiye Mosque and its Social Complex,Turkey,1784
269,Cultural,0,39.95644,26.239,Archaeological Site of Troy,Turkey,1000
270,Cultural,0,37.9997222222,58.1986111111,Parthian Fortresses of Nisa,Turkmenistan,1471
271,Cultural,0,42.18318,59.08494,Kunya-Urgench,Turkmenistan,1376
272,Cultural,0,37.70083,62.1775,State Historical and Cultural Park “Ancient Merv”,Turkmenistan,1038
273,Cultural,1,0.348611111,32.55138889,Tombs of Buganda Kings at Kasubi,Uganda,1192
274,Cultural,0,50.45258,30.51686,"Kiev: Saint-Sophia Cathedral and Related Monastic Buildings, Kiev-Pechersk Lavra",Ukraine,617
275,Cultural,0,48.2966666667,25.9247222222,Residence of Bukovinian and Dalmatian Metropolitans,Ukraine,1785
276,Cultural,0,44.6108333333,33.4913888889,Ancient City of Tauric Chersonese and its Chora,Ukraine,1895
277,Cultural,0,36.94639,11.09917,Punic Town of Kerkuane and its Necropolis,Tunisia,378
278,Cultural,0,49.84163,24.03198,L'viv – the Ensemble of the Historic Centre,Ukraine,1632
279,Cultural,0,35.82778,10.63861,Medina of Sousse,Tunisia,1743
280,Cultural,0,10.06666667,1.133333333,"Koutammakou, the Land of the Batammariba",Togo,1321
281,Cultural,0,65.64611,22.02861,"Church Town of Gammelstad, Luleå ",Sweden,898
282,Cultural,0,56.325,16.48333,Agricultural Landscape of Southern Öland,Sweden,1132
283,Cultural,0,56.16667,15.58333,Naval Port of Karlskrona,Sweden,1022
284,Cultural,0,61.7072222222,16.1958333333,Decorated Farmhouses of Hälsingland,Sweden,1814
285,Cultural,0,59.33514,17.54264,Birka and Hovgården,Sweden,653
286,Cultural,0,60.60472,15.63083,Mining Area of the Great Copper Mountain in Falun,Sweden,1200
287,Cultural,0,57.1,12.38333333,"Grimeton Radio Station, Varberg",Sweden,1314
288,Cultural,0,47.2783333333,8.2075,Prehistoric Pile Dwellings around the Alps,Switzerland,1782
289,Cultural,0,47.1038888889,6.8327777778,"La Chaux-de-Fonds / Le Locle, Watchmaking Town Planning",Switzerland,1582
290,Cultural,0,46.4919444444,6.7461111111,"Lavaux, Vineyard Terraces",Switzerland,1420
291,Cultural,0,46.19314,9.02242,"Three Castles, Defensive Wall and Ramparts of the Market-Town of Bellinzona",Switzerland,1036
292,Cultural,0,46.62945,10.44765,Benedictine Convent of St John at Müstair,Switzerland,299
293,Cultural,0,47.42333,9.37778,Abbey of St Gall,Switzerland,298
294,Cultural,0,46.4983333333,9.8463888889,Rhaetian Railway in the Albula / Bernina Landscapes,Switzerland,1503
295,Cultural,0,46.4684138889,6.8293361111,"The Architectural Work of Le Corbusier, an Outstanding Contribution to the Modern Movement",Switzerland,2085
296,Cultural,0,46.94806,7.45028,Old City of Berne,Switzerland,297
297,Cultural,1,36.3341666667,36.8441666667,Ancient Villages of Northern Syria,Syrian Arab Republic,1761
298,Cultural,1,34.55417,38.26667,Site of Palmyra,Syrian Arab Republic,2256
299,Cultural,1,32.51806,36.48167,Ancient City of Bosra,Syrian Arab Republic,2209
300,Cultural,1,36.1991666667,37.1627777778,Ancient City of Aleppo,Syrian Arab Republic,24
301,Cultural,1,33.51139,36.30639,Ancient City of Damascus,Syrian Arab Republic,1862
302,Cultural,1,34.7816666667,36.2630555555,Crac des Chevaliers and Qal’at Salah El-Din,Syrian Arab Republic,1406
303,Cultural,0,13.6911111111,-15.5225,Stone Circles of Senegambia,Sénégal,1403
304,Cultural,0,39.5077777778,67.4602777778,Proto-urban Site of Sarazm,Tajikistan,1651
305,Cultural,0,17.00722,99.78972,Historic Town of Sukhothai and Associated Historic Towns,Thailand,679
306,Cultural,0,17.54861,103.35833,Ban Chiang Archaeological Site,Thailand,680
307,Cultural,0,14.34778,100.56056,Historic City of Ayutthaya,Thailand,681
308,Cultural,0,35.68167,10.10389,Kairouan,Tunisia,1742
309,Cultural,0,59.32306,17.88333,Royal Domain of Drottningholm,Sweden,660
310,Cultural,0,24.0677777778,55.8063888889,"Cultural Sites of Al Ain (Hafit, Hili, Bidaa Bint Saud and Oases Areas)",United Arab Emirates,1762
311,Cultural,0,51.17888889,-1.825277778,"Stonehenge, Avebury and Associated Sites",United Kingdom of Great Britain and Northern Ireland,1633
312,Cultural,0,40.68944444,-74.04472222,Statue of Liberty,United States of America,346
313,Cultural,0,18.46666667,-66.125,La Fortaleza and San Juan National Historic Site in Puerto Rico,United States of America,2192
314,Cultural,0,32.6369444444,-91.4063888889,Monumental Earthworks of Poverty Point,United States of America,1978
315,Cultural,0,36.43889,-105.54167,Taos Pueblo,United States of America,573
316,Cultural,0,39.94861111,-75.15,Independence Hall,United States of America,84
317,Cultural,0,39.9055708333,-79.4664755556,The 20th-Century Architecture of Frank Lloyd Wright,United States of America,2322
318,Cultural,0,38.65861111,-90.06138889,Cahokia Mounds State Historic Site,United States of America,2191
319,Cultural,0,29.3280555556,-98.46,San Antonio Missions,United States of America,2027
320,Cultural,0,-34.46777778,-57.85333333,Historic Quarter of the City of Colonia del Sacramento,Uruguay,881
321,Cultural,0,-33.1177777778,-58.3316666667,Fray Bentos Industrial Landscape,Uruguay,2025
322,Cultural,0,39.77472,64.42861,Historic Centre of Bukhara,Uzbekistan,2184
323,Cultural,0,39.66861,67.0,Samarkand  – Crossroad of Cultures,Uzbekistan,715
324,Cultural,1,39.05,66.83333,Historic Centre of Shakhrisyabz,Uzbekistan,1037
325,Cultural,0,41.37833,60.36389,Itchan Kala,Uzbekistan,638
326,Cultural,0,-17.6280694444,168.1777194444,Chief Roi Mata’s Domain,Vanuatu,1511
327,Cultural,0,10.49073,-66.89068,Ciudad Universitaria de Caracas,Venezuela (Bolivarian Republic of),1150
328,Cultural,1,11.4,-69.68333333,Coro and its Port,Venezuela (Bolivarian Republic of),779
329,Cultural,0,20.0780555556,105.6047222222,Citadel of the Ho Dynasty,Viet Nam,1775
330,Cultural,0,21.0394444444,105.8372222222,Central Sector of the Imperial Citadel of Thang Long - Hanoi,Viet Nam,1689
331,Cultural,0,16.46944,107.57778,Complex of Hué Monuments,Viet Nam,802
332,Cultural,0,15.88333333,108.3333333,Hoi An Ancient Town,Viet Nam,1109
333,Cultural,0,15.51666667,108.5666667,My Son Sanctuary,Viet Nam,1110
334,Cultural,1,14.1953333333,43.3155277778,Historic Town of Zabid,Yemen,725
335,Cultural,1,15.35555556,44.20805556,Old City of Sana'a,Yemen,444
336,Cultural,1,15.92694,48.62667,Old Walled City of Shibam,Yemen,213
337,Cultural,0,-20.28333333,30.93333333,Great Zimbabwe National Monument,Zimbabwe,417
338,Cultural,0,-20.5,28.5,Matobo Hills,Zimbabwe,345
339,Cultural,0,37.26166667,-108.4855556,Mesa Verde National Park,United States of America,30
340,Cultural,1,53.40666667,-2.994444444,Liverpool – Maritime Mercantile City,United Kingdom of Great Britain and Northern Ireland,1331
341,Cultural,0,36.06377778,-107.9708333,Chaco Culture,United States of America,405
342,Cultural,0,-4.7244444444,35.8338888888,Kondoa Rock-Art Sites,United Republic of Tanzania,1449
343,Cultural,0,51.84194444,-1.361388889,Blenheim Palace,United Kingdom of Great Britain and Northern Ireland,492
344,Cultural,0,54.4766111111,-3.0824166667,The English Lake District,United Kingdom of Great Britain and Northern Ireland,2171
345,Cultural,0,54.77472222,-1.576111111,Durham Castle and Cathedral,United Kingdom of Great Britain and Northern Ireland,1634
346,Cultural,0,52.62638889,-2.472777778,Ironbridge Gorge,United Kingdom of Great Britain and Northern Ireland,425
347,Cultural,0,53.13972222,-4.276944444,Castles and Town Walls of King Edward in Gwynedd,United Kingdom of Great Britain and Northern Ireland,429
348,Cultural,0,53.2339166667,-2.3038611111,Jodrell Bank Observatory,United Kingdom of Great Britain and Northern Ireland,2285
349,Cultural,0,36.1226694444,-5.3420611111,Gorham's Cave Complex,United Kingdom of Great Britain and Northern Ireland,2087
350,Cultural,0,56.0011111111,-3.3888888889,The Forth Bridge,United Kingdom of Great Britain and Northern Ireland,2046
351,Cultural,0,50.1361111111,-5.3836111111,Cornwall and West Devon Mining Landscape,United Kingdom of Great Britain and Northern Ireland,1392
352,Cultural,0,54.11611111,-1.573055556,Studley Royal Park including the Ruins of Fountains Abbey,United Kingdom of Great Britain and Northern Ireland,1930
353,Cultural,0,51.48194444,-0.294027778,"Royal Botanic Gardens, Kew",United Kingdom of Great Britain and Northern Ireland,1262
354,Cultural,0,54.9926111111,-2.601,Frontiers of the Roman Empire,United Kingdom of Great Britain and Northern Ireland,1539
355,Cultural,0,53.02888889,-1.488055556,Derwent Valley Mills,United Kingdom of Great Britain and Northern Ireland,1203
356,Cultural,0,51.77638889,-3.088055556,Blaenavon Industrial Landscape,United Kingdom of Great Britain and Northern Ireland,1148
357,Cultural,0,51.28,1.083333333,"Canterbury Cathedral, St Augustine's Abbey, and St Martin's Church",United Kingdom of Great Britain and Northern Ireland,578
358,Cultural,0,51.38138889,-2.358611111,City of Bath,United Kingdom of Great Britain and Northern Ireland,495
359,Cultural,0,55.66333333,-3.783055556,New Lanark,United Kingdom of Great Britain and Northern Ireland,497
360,Cultural,0,58.99605556,-3.188666667,Heart of Neolithic Orkney,United Kingdom of Great Britain and Northern Ireland,2125
361,Cultural,0,51.50805556,-0.076111111,Tower of London,United Kingdom of Great Britain and Northern Ireland,567
362,Cultural,0,51.49972222,-0.128611111,Palace of Westminster and Westminster Abbey including Saint Margaret’s Church,United Kingdom of Great Britain and Northern Ireland,1635
363,Cultural,0,55.95,-3.216666667,Old and New Towns of Edinburgh,United Kingdom of Great Britain and Northern Ireland,860
364,Cultural,0,51.4811666667,-0.0037777778,Maritime Greenwich,United Kingdom of Great Britain and Northern Ireland,939
365,Cultural,0,32.37944444,-64.67777778,"Historic Town of St George and Related Fortifications, Bermuda",United Kingdom of Great Britain and Northern Ireland,1147
366,Cultural,0,53.83916667,-1.788333333,Saltaire,United Kingdom of Great Britain and Northern Ireland,1201
367,Cultural,0,52.9702777778,-3.0877777778,Pontcysyllte Aqueduct and Canal,United Kingdom of Great Britain and Northern Ireland,1583
368,Cultural,0,-6.16306,39.18917,Stone Town of Zanzibar,United Republic of Tanzania,192
369,Cultural,0,-8.95778,39.52278,Ruins of Kilwa Kisiwani and Ruins of Songo Mnara,United Republic of Tanzania,159
370,Cultural,0,38.03277778,-78.50388889,Monticello and the University of Virginia in Charlottesville,United States of America,2126
371,Cultural,0,58.70111,11.34111,Rock Carvings in Tanum,Sweden,657
372,Cultural,0,59.27556,18.09944,Skogskyrkogården,Sweden,659
373,Cultural,0,59.96667,16.00833,Engelsberg Ironworks,Sweden,655
374,Cultural,0,54.9788888889,49.0563888889,Bolgar Historical and Archaeological Complex,Russian Federation,2009
375,Cultural,0,59.95,38.56666667,Ensemble of the Ferapontov Monastery,Russian Federation,1146
376,Cultural,0,55.79111111,49.095,Historic and Architectural Complex of the Kazan Kremlin,Russian Federation,1144
377,Cultural,0,55.7702777778,48.6527777778,Assumption Cathedral and Monastery of the town-island of Sviyazhsk,Russian Federation,2168
378,Cultural,0,56.15,40.41666667,White Monuments of Vladimir and Suzdal,Russian Federation,752
379,Cultural,0,55.27458,20.96239,Curonian Spit,Russian Federation,1158
380,Cultural,0,65.08333333,35.66666667,Cultural and Historic Ensemble of the Solovetsky Islands,Russian Federation,750
381,Cultural,0,55.65556,37.67389,"Church of the Ascension, Kolomenskoye",Russian Federation,754
382,Cultural,0,56.31035,38.1312,Architectural Ensemble of the Trinity Sergius Lavra in Sergiev Posad,Russian Federation,778
383,Cultural,0,58.53333,31.28333,Historic Monuments of Novgorod and Surroundings,Russian Federation,716
384,Cultural,0,55.74583,37.62972,"Kremlin and Red Square, Moscow",Russian Federation,640
385,Cultural,0,62.07138889,35.2275,Kizhi Pogost,Russian Federation,639
386,Cultural,0,17.34694,-62.83722,Brimstone Hill Fortress National Park,Saint Kitts and Nevis,1063
387,Cultural,0,43.9327777778,12.4519444444,San Marino Historic Centre and Mount Titano,San Marino,1535
388,Cultural,0,24.7341333333,46.5724666667,At-Turaif District in ad-Dir'iyah,Saudi Arabia,1659
389,Cultural,0,28.0105555556,40.9130555556,Rock Art in the Hail Region of Saudi Arabia,Saudi Arabia,2033
390,Cultural,0,21.4838888889,39.1875,"Historic Jeddah, the Gate to Makkah",Saudi Arabia,1968
391,Cultural,0,25.4021666667,49.6305694444,"Al-Ahsa Oasis, an Evolving Cultural Landscape",Saudi Arabia,2228
392,Cultural,0,26.7836111111,37.955,Al-Hijr Archaeological Site (Madâin Sâlih),Saudi Arabia,1524
393,Cultural,0,14.66722,-17.40083,Island of Gorée,Senegal,29
394,Cultural,0,13.8352777778,-16.4986111111,Saloum Delta,Senegal,1754
395,Cultural,0,16.02778,-16.50444,Island of Saint-Louis,Senegal,1561
396,Cultural,0,12.5933333333,-12.8458333333,"Bassari Country: Bassari, Fula and Bedik Cultural Landscapes",Senegal,1832
397,Cultural,1,42.6611111111,20.2655555555,Medieval Monuments in Kosovo,Serbia,856
398,Cultural,0,43.11889,20.42278,Stari Ras and Sopo?ani,Serbia,104
399,Cultural,0,43.8993055556,22.1861111111,"Gamzigrad-Romuliana, Palace of Galerius",Serbia,1430
400,Cultural,0,43.48611,20.53667,Studenica Monastery,Serbia,449
401,Cultural,0,59.95,30.31833,Historic Centre of Saint Petersburg and Related Groups of Monuments,Russian Federation,1958
402,Cultural,0,1.3152777778,103.8161111111,Singapore Botanic Gardens,Singapore,2044
403,Cultural,0,42.05297222,48.29719444,"Citadel, Ancient City and Fortress Buildings of Derbent",Russian Federation,1247
404,Cultural,0,55.72611111,37.55508333,Ensemble of the Novodevichy Convent,Russian Federation,1275
405,Cultural,0,41.443731,-8.292803,Historic Centre of Guimarães,Portugal,1204
406,Cultural,0,41.10166667,-7.798888889,Alto Douro Wine Region,Portugal,1220
407,Cultural,0,38.51344444,-28.54116667,Landscape of the Pico Island Vineyard Culture,Portugal,1297
408,Cultural,0,38.8806194444,-7.1633222222,Garrison Border Town of Elvas and its Fortifications,Portugal,1956
409,Cultural,0,38.9371666667,-9.3255277778,"Royal Building of <i>Mafra</i> – Palace, Basilica, Convent, <i>Cerco</i> Garden and Hunting Park (<i>Tapada</i>)",Portugal,2276
410,Cultural,0,41.5549444444,-8.3770277778,Sanctuary of Bom Jesus do Monte in Braga,Portugal,2280
411,Cultural,0,25.9780555556,51.0297222222,Al Zubarah Archaeological Site,Qatar,1948
412,Cultural,0,36.7272972222,128.8434277778,"Seowon, Korean Neo-Confucian Academies",Republic of Korea,2278
413,Cultural,0,37.55,126.9833333,Changdeokgung Palace Complex,Republic of Korea,964
414,Cultural,0,36.5419444444,127.8333333333,"Sansa, Buddhist Mountain Monasteries in Korea",Republic of Korea,2227
415,Cultural,0,36.5391666667,128.5166666667,Historic Villages of Korea: Hahoe and Yangdong,Republic of Korea,1688
416,Cultural,0,37.4788888889,127.1811111111,Namhansanseong,Republic of Korea,1982
417,Cultural,0,34.96667,126.92917,"Gochang, Hwasun and Ganghwa Dolmen Sites",Republic of Korea,1141
418,Cultural,0,36.4619444444,127.1272222222,Baekje Historic Areas,Republic of Korea,2038
419,Cultural,0,35.78333333,129.35,Seokguram Grotto and Bulguksa Temple,Republic of Korea,869
420,Cultural,0,37.1972222222,128.4527777778,Royal Tombs of the Joseon Dynasty,Republic of Korea,1957
421,Cultural,0,35.78889,129.22667,Gyeongju Historic Areas,Republic of Korea,1140
422,Cultural,0,37.27222,127.00833,Hwaseong Fortress,Republic of Korea,965
423,Cultural,0,37.55,126.98333,Jongmyo Shrine,Republic of Korea,871
424,Cultural,0,35.8,128.1,"Haeinsa Temple Janggyeong Panjeon, the Depositories for the <I>Tripitaka Koreana</I> Woodblocks",Republic of Korea,870
425,Cultural,0,47.7783333333,25.7127777778,Churches of Moldavia,Romania,1728
426,Cultural,0,46.13583333,24.77305556,Villages with Fortified Churches in Transylvania,Romania,705
427,Cultural,0,45.18333333,24.01666667,Monastery of Horezu,Romania,706
428,Cultural,0,45.62305556,23.31194444,Dacian Fortresses of the Orastie Mountains,Romania,1059
429,Cultural,0,46.21777778,24.79222222,Historic Centre of Sighi?oara,Romania,1055
430,Cultural,0,47.82083333,24.05583333,Wooden Churches of Maramure?,Romania,1057
431,Cultural,0,57.65278,39.87611,Historical Centre of the City of Yaroslavl,Russian Federation,1347
432,Cultural,0,57.8071944444,28.3285555556,Churches of the Pskov School of Architecture,Russian Federation,2269
433,Cultural,0,48.46111,18.9,Historic Town of Banská Štiavnica and the Technical Monuments in its Vicinity,Slovakia,734
434,Cultural,0,49.3361111111,19.5583333333,Wooden Churches of the Slovak part of the Carpathian Mountain Area,Slovakia,1491
435,Cultural,0,48.9994444444,20.7675,"Levo?a, Spišský Hrad and the Associated Cultural Monuments",Slovakia,1537
436,Cultural,0,39.45285,-5.3275,Royal Monastery of Santa María de Guadalupe,Spain,786
437,Cultural,0,42.46939,-6.77075,Las Médulas,Spain,949
438,Cultural,0,43.3858333333,-8.4063888889,Tower of Hercules,Spain,1616
439,Cultural,0,43.323175,-3.0168333333,Vizcaya Bridge,Spain,1394
440,Cultural,0,40.03645,-3.60934,Aranjuez Cultural Landscape,Spain,1218
441,Cultural,0,42.37138889,-3.547222222,Archaeological Site of Atapuerca,Spain,1153
442,Cultural,0,39.47441667,-0.378444444,La Lonja de la Seda de Valencia,Spain,925
443,Cultural,0,39.7308333333,2.6947222222,Cultural Landscape of the Serra de Tramuntana,Spain,1781
444,Cultural,0,28.47788889,-16.31177778,San Cristóbal de La Laguna,Spain,1084
445,Cultural,0,40.48138889,-3.368055556,University and Historic Precinct of Alcalá de Henares,Spain,1028
446,Cultural,0,41.11472222,1.259305556,Archaeological Ensemble of Tárraco,Spain,1027
447,Cultural,0,39.78995,-1.03331,Rock Art of the Mediterranean Basin on the Iberian Peninsula,Spain,1026
448,Cultural,0,40.07662,-2.13174,Historic Walled Town of Cuenca,Spain,924
449,Cultural,0,42.50472222,0.803611111,Catalan Romanesque Churches of the Vall de Boí,Spain,1152
450,Cultural,0,38.26666667,-0.716666667,Palmeral of Elche,Spain,1085
451,Cultural,0,42.32586,-2.86496,San Millán Yuso and Suso Monasteries,Spain,951
452,Cultural,0,41.38778,2.175,"Palau de la Música Catalana and Hospital de Sant Pau, Barcelona",Spain,1631
453,Cultural,0,6.021388889,80.21861111,Old Town of Galle and its Fortifications,Sri Lanka,523
454,Cultural,0,8.333333333,80.38333333,Sacred City of Anuradhapura,Sri Lanka,221
455,Cultural,0,7.293611111,80.64027778,Sacred City of Kandy,Sri Lanka,522
456,Cultural,0,7.856666667,80.64916667,Golden Temple of Dambulla,Sri Lanka,663
457,Cultural,0,7.915833333,81.00055556,Ancient City of Polonnaruwa,Sri Lanka,222
458,Cultural,0,7.95,80.75,Ancient City of Sigiriya,Sri Lanka,223
459,Cultural,0,18.537,31.8280277778,Gebel Barkal and the Sites of the Napatan Region,Sudan,1250
460,Cultural,0,16.9333333333,33.7166666667,Archaeological Sites of the Island of Meroe,Sudan,1760
461,Cultural,0,5.82611,-55.15,Historic Inner City of Paramaribo,Suriname,1096
462,Cultural,0,57.64167,18.29583,Hanseatic Town of Visby,Sweden,864
463,Cultural,0,38.91611,-6.33778,Archaeological Ensemble of Mérida,Spain,785
464,Cultural,0,38.7752777778,-4.8388888889,Heritage of Mercury. Almadén and Idrija,Spain,1841
465,Cultural,0,37.8858888889,-4.8676944444,Caliphate City of Medina Azahara,Spain,2225
466,Cultural,0,28.0443888889,-15.6611944444,Risco Caido and the Sacred Mountains of Gran Canaria Cultural Landscape,Spain,2263
467,Cultural,0,49.0391666667,19.2783333333,Vlkolínec,Slovakia,740
468,Cultural,0,49.2927777778,21.2755555556,Bardejov Town Conservation Reserve,Slovakia,1137
469,Cultural,0,-22.1925,29.23889,Mapungubwe Cultural Landscape,South Africa,2061
470,Cultural,0,-28.6,17.2038888888,Richtersveld Cultural and Botanical Landscape,South Africa,1442
471,Cultural,0,-25.6876111111,20.3745833333,?Khomani Cultural Landscape,South Africa,2133
472,Cultural,0,-24.15861,29.17694,Fossil Hominid Sites of South Africa,South Africa,1069
473,Cultural,0,-33.8,18.36666667,Robben Island,South Africa,1070
474,Cultural,0,37.87919444,-4.779722222,Historic Centre of Cordoba,Spain,355
475,Cultural,0,43.01111,-7.55333,Roman Walls of Lugo,Spain,1151
476,Cultural,0,40.58175,-4.126416667,"Monastery and Site of the Escurial, Madrid",Spain,361
477,Cultural,0,42.3407333333,-3.7040111111,Burgos Cathedral,Spain,2070
478,Cultural,0,43.38252778,-4.116166667,Cave of Altamira and Paleolithic Cave Art of Northern Spain,Spain,1506
479,Cultural,0,41.41338,2.152972,Works of Antoni Gaudí ,Spain,364
480,Cultural,0,41.14166667,-8.616666667,"Historic Centre of Oporto, Luiz I Bridge and Monastery of Serra do Pilar ",Portugal,890
481,Cultural,0,43.335,-6.4147222222,Routes of Santiago de Compostela: <i>Camino Francés</i> and Routes of Northern Spain ,Spain,2055
482,Cultural,0,38.01131,-3.37122,Renaissance Monumental Ensembles of Úbeda and Baeza,Spain,611
483,Cultural,0,39.86688889,-4.029416667,Historic City of Toledo,Spain,435
484,Cultural,0,40.6975,-6.6611111111,Prehistoric Rock Art Sites in the Côa Valley and Siega Verde,Spain,1642
485,Cultural,0,37.38384,-5.99155,"Cathedral, Alcázar and Archivo de Indias in Seville",Spain,1747
486,Cultural,0,40.96525,-5.6645,Old City of Salamanca,Spain,439
487,Cultural,0,40.34389,-1.10722,Mudejar Architecture of Aragon,Spain,2188
488,Cultural,0,40.65645,-4.70012,Old Town of Ávila with its Extra-Muros Churches,Spain,1562
489,Cultural,0,42.88076,-8.54468,Santiago de Compostela (Old Town),Spain,395
490,Cultural,0,37.17667,-3.59444,"Alhambra, Generalife and Albayzín, Granada",Spain,357
491,Cultural,0,39.47444,-6.37,Old Town of Cáceres,Spain,2189
492,Cultural,0,41.38083,1.0825,Poblet Monastery,Spain,605
493,Cultural,0,43.36262,-5.84303,Monuments of Oviedo and the Kingdom of the Asturias,Spain,353
494,Cultural,0,37.025,-4.5444444444,Antequera Dolmens Site,Spain,2088
495,Cultural,0,40.94847222,-4.11675,Old Town of Segovia and its Aqueduct,Spain,2124
496,Cultural,0,35.6803666667,51.4205111111,Golestan Palace,Iran (Islamic Republic of),1888
497,Cultural,0,45.95705556,10.29733333,Rock Drawings in Valcamonica,Italy,101
498,Cultural,0,38.0813888889,46.2930555556,Tabriz Historic Bazaar Complex,Iran (Islamic Republic of),1681
499,Cultural,0,37.20139,112.15444,Ancient City of Ping Yao,China,959
500,Cultural,0,40.10972,113.12222,Yungang Grottoes,China,1213
501,Cultural,0,9.233333333,-74.43333333,Historic Centre of Santa Cruz de Mompox,Colombia,876
502,Cultural,0,10.41666667,-75.53333333,"Port, Fortresses and Group of Monuments, Cartagena",Colombia,319
503,Cultural,0,5.4716666667,-75.6816666667,Coffee Cultural Landscape of Colombia,Colombia,1787
504,Cultural,0,2.583333333,-76.03333333,National Archeological Park of Tierradentro,Colombia,877
505,Cultural,0,1.916666667,-76.23333333,San Agustín Archaeological Park,Colombia,878
506,Cultural,0,8.9113888889,-83.4775,Precolumbian Chiefdom Settlements with Stone Spheres of the Diquís,Costa Rica,1997
507,Cultural,0,43.50944,16.44333,Historical Complex of Split with the Palace of Diocletian,Croatia,105
508,Cultural,0,42.65056,18.09139,Old City of Dubrovnik,Croatia,2315
509,Cultural,0,43.5125,16.25167,Historic City of Trogir,Croatia,957
510,Cultural,0,45.22917,13.59444,Episcopal Complex of the Euphrasian Basilica in the Historic Centre of Pore?,Croatia,956
511,Cultural,0,43.73629,15.89038,The Cathedral of St James in Šibenik,Croatia,1127
512,Cultural,0,43.1816666667,16.6386111111,Stari Grad Plain,Croatia,1484
513,Cultural,0,22.14722,-80.45278,Urban Historic Centre of Cienfuegos ,Cuba,1379
514,Cultural,0,21.3786111111,-77.9186111111,Historic Centre of Camagüey,Cuba,1482
515,Cultural,0,23.13333333,-82.35,Old Havana and its Fortification System,Cuba,225
516,Cultural,0,22.61667,-83.71667,Viñales Valley,Cuba,991
517,Cultural,0,19.96666667,-75.87083333,"San Pedro de la Roca Castle, Santiago de Cuba",Cuba,992
518,Cultural,0,21.80305556,-79.98444444,Trinidad and the Valley de los Ingenios,Cuba,535
519,Cultural,0,32.6697222222,51.6852777778,Masjed-e J?mé of Isfahan  ,Iran (Islamic Republic of),1821
520,Cultural,0,34.79833,33.34333,Choirokoitia,Cyprus,1927
521,Cultural,0,34.92027778,33.09583333,Painted Churches in the Troodos Region,Cyprus,401
522,Cultural,0,29.90444444,117.9875,Ancient Villages in Southern Anhui – Xidi and Hongcun,China,1168
523,Cultural,0,34.46666667,112.4666667,Longmen Grottoes,China,1169
524,Cultural,0,41.70722222,124.7938889,Imperial Tombs of the Ming and Qing Dynasties,China,1172
525,Cultural,0,23.0932777778,102.7799805556,Cultural Landscape of Honghe Hani Rice Terraces ,China,1877
526,Cultural,0,34.4587472222,113.0677194444,Historic Monuments of Dengfeng in “The Centre of Heaven and Earth”,China,1726
527,Cultural,0,36.1266666666,114.3138888888,Yin Xu,China,1293
528,Cultural,0,31.00167,103.60528,Mount Qingcheng and the Dujiangyan Irrigation System,China,1167
529,Cultural,0,30.3955555556,119.9908333333,Archaeological Ruins of Liangzhu City,China,2277
530,Cultural,0,24.4475,118.0619444444,"Kulangsu, a Historic International Settlement",China,2142
531,Cultural,0,34.6938888889,112.4683333333,The Grand Canal,China,2181
532,Cultural,0,28.9986111111,109.9669444444,Tusi Sites,China,2035
533,Cultural,0,34.3044444444,108.8572222222,Silk Roads: the Routes Network of Chang'an-Tianshan Corridor,China,1985
534,Cultural,0,29.65792,91.11717,"Historic Ensemble of the Potala Palace, Lhasa",China,837
535,Cultural,0,39.84555556,116.4447222,Temple of Heaven: an Imperial Sacrificial Altar in Beijing,China,1033
536,Cultural,0,29.43333333,115.8666667,Lushan National Park,China,921
537,Cultural,0,34.75833,32.40556,Paphos,Cyprus,85
538,Cultural,0,26.86667,100.23333,Old Town of Lijiang,China,1934
539,Cultural,0,35.61167,116.975,Temple and Cemetery of Confucius and the Kong Family Mansion in Qufu,China,832
540,Cultural,0,39.73333333,115.9166667,Peking Man Site at Zhoukoudian,China,521
541,Cultural,0,31.31666667,120.45,Classical Gardens of Suzhou,China,961
542,Cultural,0,40.98694,117.93833,"Mountain Resort and its Outlying Temples, Chengde",China,831
543,Cultural,0,41.15694444,126.1872222,Capital Cities and Tombs of the Ancient Koguryo Kingdom,China,1315
544,Cultural,0,32.46667,111.0,Ancient Building Complex in the Wudang Mountains,China,833
545,Cultural,0,22.1912919444,113.5364611111,Historic Centre of Macao,China,1289
546,Cultural,0,29.70111,105.705,Dazu Rock Carvings,China,1065
547,Cultural,0,39.91055556,116.1411111,"Summer Palace, an Imperial Garden in Beijing",China,1032
548,Cultural,0,22.2855194444,112.5658611111,Kaiping Diaolou and Villages,China,1459
549,Cultural,0,34.38333333,109.1,Mausoleum of the First Qin Emperor,China,512
550,Cultural,0,25.0230555556,117.6858333333,Fujian <em>Tulou</em>,China,1505
551,Cultural,0,22.2555555556,107.0230555556,Zuojiang Huashan Rock Art Cultural Landscape,China,2100
552,Cultural,0,50.08972,14.41944,Historic Centre of Prague,Czechia,1928
553,Cultural,0,48.77583,16.775,Lednice-Valtice Cultural Landscape,Czechia,899
554,Cultural,0,22.3372222222,31.6258055556,Nubian Monuments from Abu Simbel to Philae,Egypt,94
555,Cultural,0,28.55623,33.97543,Saint Catherine Area,Egypt,1116
556,Cultural,0,13.8275,-89.36916667,Joya de Cerén Archaeological Site,El Salvador,799
557,Cultural,0,15.3352777778,38.9358333333,Asmara: A Modernist African City,Eritrea,2131
558,Cultural,0,59.0577777778,26.3377777777,Struve Geodetic Arc,Estonia,1364
559,Cultural,0,59.43333,24.73333333,Historic Centre (Old Town) of Tallinn,Estonia,1626
560,Cultural,0,14.13019,38.71861,Aksum,Ethiopia,18
561,Cultural,0,12.02935,39.04042,"Rock-Hewn Churches, Lalibela",Ethiopia,21
562,Cultural,0,11.10006,40.57939,Lower Valley of the Awash,Ethiopia,13
563,Cultural,0,8.43491,38.6121,Tiya,Ethiopia,15
564,Cultural,0,12.60692,37.46617,"Fasil Ghebbi, Gondar Region",Ethiopia,22
565,Cultural,0,9.3088888888,42.1377777777,"Harar Jugol, the Fortified Historic Town",Ethiopia,1452
566,Cultural,0,5.3,37.4,Konso Cultural Landscape,Ethiopia,1846
567,Cultural,0,4.8,35.96666667,Lower Valley of the Omo,Ethiopia,20
568,Cultural,0,-17.6833777778,178.8345333333,Levuka Historical Port Town,Fiji,1886
569,Cultural,0,61.12056,21.7775,Bronze Age Burial Site of Sammallahdenmäki,Finland,686
570,Cultural,0,62.25,25.18333,Petäjävesi Old Church,Finland,691
571,Cultural,0,60.14722,24.98722,Fortress of Suomenlinna,Finland,690
572,Cultural,0,61.12806,21.51167,Old Rauma,Finland,1718
573,Cultural,0,61.06194,26.64083,Verla Groundwood and Board Mill,Finland,885
574,Cultural,0,46.9375,5.8763888889,"From the Great Saltworks of Salins-les-Bains to the Royal Saltworks of Arc-et-Senans, the Production of Open-pan Salt ",France,1637
575,Cultural,0,43.67763889,4.630694444,"Arles, Roman and Romanesque Monuments",France,182
576,Cultural,0,44.2202777778,3.4730555556,"The Causses and the Cévennes, Mediterranean agro-pastoral Cultural Landscape",France,1848
577,Cultural,0,29.97604,31.13041,Memphis and its Necropolis – the Pyramid Fields from Giza to Dahshur,Egypt,92
578,Cultural,0,30.05,31.26111,Historic Cairo,Egypt,95
579,Cultural,0,25.73333,32.6,Ancient Thebes with its Necropolis,Egypt,93
580,Cultural,1,30.8358333333,29.66666667,Abu Mena,Egypt,96
581,Cultural,0,49.21722222,15.87888889,Jewish Quarter and St Procopius' Basilica in T?ebí?,Czechia,2258
582,Cultural,0,49.5802,15.9420583333,Pilgrimage Church of St John of Nepomuk at Zelená Hora,Czechia,816
583,Cultural,0,49.5939361111,17.2504583333,Holy Trinity Column in Olomouc,Czechia,1010
584,Cultural,0,49.18333,15.45,Historic Centre of Tel?,Czechia,738
585,Cultural,0,48.95972222,14.25277778,Holašovice Historic Village,Czechia,1012
586,Cultural,0,50.05665,15.4842583333,Landscape for Breeding and Training of Ceremonial Carriage Horses at Kladruby nad Labem,Czechia,2281
587,Cultural,0,49.3,17.37722222,Gardens and Castle at Krom??íž,Czechia,1011
588,Cultural,0,49.95,15.2666666667,Kutná Hora: Historical Town Centre with the Church of St Barbara and the Cathedral of Our Lady at Sedlec,Czechia,865
589,Cultural,0,49.2071833333,16.6160555556,Tugendhat Villa in Brno,Czechia,1226
590,Cultural,0,49.87361,16.31444,Litomyšl Castle,Czechia,1054
591,Cultural,0,50.4065277778,12.8373444444,Erzgebirge/Krušnoho?í Mining Region,Czechia,2267
592,Cultural,0,48.81666667,14.31666667,Historic Centre of ?eský Krumlov,Czechia,732
593,Cultural,0,5.1958333333,3.7363888889,Historic Town of Grand-Bassam,Côte d'Ivoire,1919
594,Cultural,0,38.86305556,125.415,Complex of Koguryo Tombs,Democratic People's Republic of Korea,1269
595,Cultural,0,55.9136111111,12.3577777778,The par force hunting landscape in North Zealand,Denmark,2030
596,Cultural,0,67.0639305556,-51.4332055556,Aasivissuit – Nipisat. Inuit Hunting Ground between Ice and Sea,Denmark,2221
597,Cultural,0,61.1644444444,-45.5980555556,Kujataa Greenland: Norse and Inuit Farming at the Edge of the Ice Cap,Denmark,2154
598,Cultural,0,55.75638889,9.42,"Jelling Mounds, Runic Stones and Church",Denmark,2316
599,Cultural,0,56.03889,12.62083333,Kronborg Castle,Denmark,824
600,Cultural,0,55.64222222,12.07972222,Roskilde Cathedral,Denmark,822
601,Cultural,0,55.3555555556,9.4813888889,"Christiansfeld, a Moravian Church Settlement",Denmark,2029
602,Cultural,0,18.48333333,-69.91666667,Colonial City of Santo Domingo,Dominican Republic,615
603,Cultural,0,-2.883333333,-78.98333333,Historic Centre of Santa Ana de los Ríos de Cuenca,Ecuador,1014
604,Cultural,0,-0.003888889,-78.5,City of Quito,Ecuador,5
605,Cultural,0,37.9816666667,126.5080555556,Historic Monuments and Sites in Kaesong,Democratic People's Republic of Korea,1878
606,Cultural,0,50.17444,3.23139,Belfries of Belgium and France,France,1100
607,Cultural,0,39.0305555556,113.5633333333,Mount Wutai,China,1587
608,Cultural,0,40.41667,116.08333,The Great Wall,China,508
609,Cultural,0,48.18666667,16.31333333,Palace and Gardens of Schönbrunn,Austria,929
610,Cultural,0,48.36444444,15.43416667,Wachau Cultural Landscape,Austria,1134
611,Cultural,0,40.125,49.375,Gobustan Rock Art Cultural Landscape,Azerbaijan,1474
612,Cultural,0,41.2033333333,47.1875,Historic Centre of Sheki with the Khan’s Palace,Azerbaijan,2333
613,Cultural,0,40.36666667,49.83333333,Walled City of Baku with the Shirvanshah's Palace and Maiden Tower,Azerbaijan,1121
614,Cultural,0,26.24128,50.61351,"Pearling, Testimony of an Island Economy",Bahrain,1859
615,Cultural,0,26.1497222222,50.5127777778,Dilmun Burial Mounds,Bahrain,2291
616,Cultural,0,26.23306,50.5272222222,Qal’at al-Bahrain – Ancient Harbour and Capital of Dilmun,Bahrain,2062
617,Cultural,0,25.03333333,88.98333333,Ruins of the Buddhist Vihara at Paharpur,Bangladesh,366
618,Cultural,0,22.66667,89.8,Historic Mosque City of Bagerhat,Bangladesh,365
619,Cultural,0,13.0966666667,-59.6138888889,Historic Bridgetown and its Garrison,Barbados,1786
620,Cultural,0,53.22278,26.69139,"Architectural, Residential and Cultural Complex of the Radziwill Family at Nesvizh",Belarus,1373
621,Cultural,0,53.45108333,26.47272222,Mir Castle Complex,Belarus,743
622,Cultural,0,51.03097222,4.47375,Flemish Béguinages,Belgium,1006
623,Cultural,0,50.82806,4.36223,Major Town Houses of the Architect Victor Horta (Brussels),Belgium,1173
624,Cultural,0,50.60603,3.38926,Notre-Dame Cathedral in Tournai,Belgium,1179
625,Cultural,0,50.84668,4.35242,"La Grand-Place, Brussels",Belgium,1008
626,Cultural,0,50.48111,4.13722,"The Four Lifts on the Canal du Centre and their Environs, La Louvière and Le Roeulx (Hainaut)",Belgium,1007
627,Cultural,0,50.835,4.4161111111,Stoclet House,Belgium,1578
628,Cultural,0,50.4352777778,3.8383333333,Major Mining Sites of Wallonia,Belgium,1837
629,Cultural,0,50.43077,3.97879,Neolithic Flint Mines at Spiennes (Mons),Belgium,1174
630,Cultural,0,51.21833,4.39778,Plantin-Moretus House-Workshops-Museum Complex,Belgium,1362
631,Cultural,0,51.20891,3.22527,Historic Centre of Brugge,Belgium,1160
632,Cultural,1,48.21666667,16.38333333,Historic Centre of Vienna,Austria,1206
633,Cultural,0,47.0741666667,15.3916666667,City of Graz – Historic Centre and Schloss Eggenberg,Austria,1724
634,Cultural,0,47.55944444,13.64638889,Hallstatt-Dachstein / Salzkammergut Cultural Landscape,Austria,952
635,Cultural,0,47.80055556,13.04333333,Historic Centre of the City of Salzburg,Austria,927
636,Cultural,1,34.84694,67.82525,Cultural Landscape and Archaeological Remains of the Bamiyan Valley,Afghanistan,230
637,Cultural,1,34.3964166667,64.5158888889,Minaret and Archaeological Remains of Jam,Afghanistan,234
638,Cultural,0,40.06944444,20.13333333,Historic Centres of Berat and Gjirokastra ,Albania,1590
639,Cultural,0,39.75111111,20.02611111,Butrint,Albania,1563
640,Cultural,0,35.4841666667,6.4688611111,Timgad,Algeria,215
641,Cultural,0,35.81844,4.78684,Al Qal'a of Beni Hammad,Algeria,111
642,Cultural,0,36.78333,3.06028,Kasbah of Algiers,Algeria,667
643,Cultural,0,36.55,2.383333333,Tipasa,Algeria,214
644,Cultural,0,32.48333,3.68333,M'Zab Valley,Algeria,209
645,Cultural,0,36.32056,5.73667,Djémila,Algeria,212
646,Cultural,0,42.49472222,1.595555556,Madriu-Perafita-Claror Valley,Andorra,1487
647,Cultural,0,7.183333333,1.983333333,Royal Palaces of Abomey,Benin,1560
648,Cultural,0,-6.2688888889,14.2497222222,"Mbanza Kongo, Vestiges of the Capital of the former Kingdom of Kongo",Angola,2128
649,Cultural,0,-47.15,-70.66666667,"Cueva de las Manos, Río Pinturas",Argentina,1091
650,Cultural,0,-23.19986111,-65.34886111,Quebrada de Humahuaca,Argentina,1295
651,Cultural,0,-31.42056,-64.19111,Jesuit Block and Estancias of Córdoba,Argentina,1159
652,Cultural,0,40.15931,44.29514,Cathedral and Churches of Echmiatsin and the Archaeological Site of Zvartnots,Armenia,1181
653,Cultural,0,40.15889,44.79667,Monastery of Geghard and the Upper Azat Valley,Armenia,1124
654,Cultural,0,41.095,44.71028,Monasteries of Haghpat and Sanahin,Armenia,920
655,Cultural,0,-37.80611111,144.9702778,Royal Exhibition Building and Carlton Gardens,Australia,1730
656,Cultural,0,-38.0811111111,141.8852777778,Budj Bim Cultural Landscape,Australia,2262
657,Cultural,0,-33.3783333333,150.9944444444,Australian Convict Sites,Australia,1648
658,Cultural,0,-33.8566666667,151.2152777777,Sydney Opera House,Australia,1457
659,Cultural,0,47.64877778,15.82797222,Semmering Railway,Austria,928
660,Cultural,0,17.0069444444,-61.7616666667,Antigua Naval Dockyard and Related Archaeological Sites,Antigua and Barbuda,2086
661,Cultural,0,40.13333,94.81667,Mogao Caves,China,511
662,Cultural,0,-19.04306,-65.25917,Historic City of Sucre,Bolivia (Plurinational State of),668
663,Cultural,0,-16.55833333,-68.67778,Tiwanaku: Spiritual and Political Centre of the Tiwanaku Culture,Bolivia (Plurinational State of),670
664,Cultural,0,10.25,-3.5833333333,Ruins of Loropéni,Burkina Faso,1696
665,Cultural,0,14.9151388889,-23.6051944444,"Cidade Velha, Historic Centre of Ribeira Grande",Cabo Verde,1600
666,Cultural,0,12.8725,105.0430555556,"Temple Zone of Sambor Prei Kuk, Archaeological Site of Ancient Ishanapura",Cambodia,2140
667,Cultural,0,14.3883333333,104.6838888889,Temple of Preah Vihear,Cambodia,1591
668,Cultural,0,13.43333333,103.8333333,Angkor,Cambodia,791
669,Cultural,0,45.1183333333,-64.3072222222,Landscape of Grand Pré,Canada,1828
670,Cultural,0,44.37611111,-64.30916667,Old Town Lunenburg,Canada,875
671,Cultural,0,51.46666667,-55.61666667,L’Anse aux Meadows National Historic Site,Canada,2248
672,Cultural,0,49.075,-111.6333333333,Writing-on-Stone / Áísínai’pi,Canada,2295
673,Cultural,0,46.80944444,-71.21055556,Historic District of Old Québec,Canada,336
674,Cultural,0,51.726925,-56.4295222222,Red Bay Basque Whaling Station,Canada,1874
675,Cultural,0,44.9943861111,-75.765125,Rideau Canal,Canada,1475
676,Cultural,0,49.74944444,-113.6238889,Head-Smashed-In Buffalo Jump,Canada,176
677,Cultural,0,52.095,-131.2202778,S<U>G</U>ang Gwaay,Canada,175
678,Cultural,0,-27.15,-109.45,Rapa Nui National Park,Chile,846
679,Cultural,0,-18.25,-69.5916666667,"Qhapaq Ñan, Andean Road System",Chile,2003
680,Cultural,0,-42.5,-73.76666667,Churches of Chiloé,Chile,1135
681,Cultural,0,-20.20582,-69.79406,Humberstone and Santa Laura Saltpeter Works,Chile,1869
682,Cultural,0,-34.0844444444,-70.3827777777,Sewell Mining Town,Chile,1391
683,Cultural,0,-33.04063889,-71.628,Historic Quarter of the Seaport City of Valparaíso,Chile,1123
684,Cultural,0,30.2375,120.1408333333,West Lake Cultural Landscape of Hangzhou,China,1765
685,Cultural,0,42.358,116.1851277778,Site of Xanadu,China,1804
686,Cultural,0,41.79416667,123.4469444,Imperial Palaces of the Ming and Qing Dynasties in Beijing and Shenyang,China,510
687,Cultural,0,12.5877583333,-3.3289861111,Ancient ferrous metallurgy sites of Burkina Faso,Burkina Faso,2290
688,Cultural,0,43.66667,26.66667,Thracian Tomb of Sveshtari,Bulgaria,412
689,Cultural,0,42.65611,27.73,Ancient City of Nessebar,Bulgaria,240
690,Cultural,0,43.3,27.15,Madara Rider,Bulgaria,47
691,Cultural,0,-18.16666667,-63.81666667,Fuerte de Samaipata,Bolivia (Plurinational State of),1035
692,Cultural,1,-19.58361,-65.75306,City of Potosí,Bolivia (Plurinational State of),484
693,Cultural,0,43.34812,17.81092,Old Bridge Area of the Old City of Mostar,Bosnia and Herzegovina,1107
694,Cultural,0,43.7814444444,19.288025,Mehmed Paša Sokolovi? Bridge in Višegrad,Bosnia and Herzegovina,1437
695,Cultural,0,43.0922138889,17.9240527778,Ste?ci Medieval Tombstone Graveyards,Bosnia and Herzegovina,2094
696,Cultural,0,-18.75,21.73333333,Tsodilo,Botswana,1191
697,Cultural,0,-19.8519444444,-43.9736111111,Pampulha Modern Ensemble,Brazil,2077
698,Cultural,0,-15.93328,-50.13336,Historic Centre of the Town of Goiás,Brazil,1157
699,Cultural,0,-2.514166667,-44.3025,Historic Centre of São Luís,Brazil,970
700,Cultural,0,-12.96666667,-38.5,Historic Centre of Salvador de Bahia,Brazil,348
701,Cultural,0,-22.8971111111,-43.1873944444,Valongo Wharf Archaeological Site,Brazil,2173
702,Cultural,0,-16.0,-60.5,Jesuit Missions of the Chiquitos,Bolivia (Plurinational State of),619
703,Cultural,0,-15.78333,-47.9,Brasilia,Brazil,516
704,Cultural,0,-22.9477777778,-43.2913888889,Rio de Janeiro: Carioca Landscapes between the Mountain and the Sea,Brazil,1843
705,Cultural,0,-8.013333333,-34.845,Historic Centre of the Town of Olinda,Brazil,210
706,Cultural,0,-20.38888889,-43.50555556,Historic Town of Ouro Preto,Brazil,136
707,Cultural,0,-18.23333333,-43.6,Historic Centre of the Town of Diamantina,Brazil,1042
708,Cultural,0,-8.416666667,-42.33333333,Serra da Capivara National Park,Brazil,719
709,Cultural,0,-28.54333333,-54.26583333,"Jesuit Missions of the Guaranis: San Ignacio Mini, Santa Ana, Nuestra Señora de Loreto and Santa Maria Mayor (Argentina), Ruins of Sao Miguel das Missoes (Brazil)",Brazil,326
710,Cultural,0,-20.49972222,-43.85777778,Sanctuary of Bom Jesus do Congonhas,Brazil,380
711,Cultural,0,42.65,23.26666667,Boyana Church,Bulgaria,46
712,Cultural,0,42.61666667,25.4,Thracian Tomb of Kazanlak,Bulgaria,48
713,Cultural,0,43.71666667,25.96666667,Rock-Hewn Churches of Ivanovo,Bulgaria,49
714,Cultural,0,42.11666667,23.4,Rila Monastery,Bulgaria,239
715,Cultural,0,-11.0161111111,-37.21,São Francisco Square in the Town of São Cristóvão,Brazil,1725
716,Cultural,0,43.94722222,4.535277778,Pont du Gard (Roman Aqueduct),France,1566
717,Cultural,0,20.03,-75.39138889,Archaeological Landscape of the First Coffee Plantations in the South-East of Cuba,Cuba,1178
718,Cultural,0,-20.15833333,28.37666667,Khami Ruins National Monument,Zimbabwe,418
719,Cultural,0,18.9298055556,72.8300833333,Victorian Gothic and Art Deco Ensembles of Mumbai,India,2041
720,Cultural,0,28.52583,77.18528,"Qutb Minar and its Monuments, Delhi",India,259
721,Cultural,0,49.02055556,12.09916667,Old town of Regensburg with Stadtamhof,Germany,1335
722,Cultural,0,53.07597222,8.807472222,Town Hall and Roland on the Marketplace of Bremen,Germany,1265
723,Cultural,0,15.50222,73.91167,Churches and Convents of Goa,India,260
724,Cultural,0,52.51972222,13.39861111,"Museumsinsel (Museum Island), Berlin",Germany,1047
725,Cultural,0,53.5455555556,9.9994444444,Speicherstadt and Kontorhaus District with Chilehaus,Germany,2028
726,Cultural,0,48.3877777778,9.7655555556,Caves and Ice Age Art in the Swabian Jura,Germany,2157
727,Cultural,0,54.4619444444,9.4541111111,Archaeological Border complex of Hedeby and the Danevirke,Germany,2206
728,Cultural,0,28.59333,77.25056,"Humayun's Tomb, Delhi",India,2182
729,Cultural,0,15.94833,75.81667,Group of Monuments at Pattadakal,India,266
730,Cultural,0,18.9401222222,72.8362027777,Chhatrapati Shivaji Terminus (formerly Victoria Terminus),India,1105
731,Cultural,0,22.48333333,73.53333333,Champaner-Pavagadh Archaeological Park,India,1279
732,Cultural,0,20.55333,75.7,Ajanta Caves,India,269
733,Cultural,0,48.3654722222,10.902,Water Management System of Augsburg,Germany,2266
734,Cultural,0,51.9836111111,9.8111111111,Fagus Factory in Alfeld,Germany,1778
735,Cultural,0,20.02639,75.17917,Ellora Caves,India,270
736,Cultural,0,18.96667,72.93583,Elephanta Caves,India,272
737,Cultural,0,19.8875,86.09472,"Sun Temple, Konârak",India,274
738,Cultural,0,49.9444444444,11.5786111111,Margravial Opera House Bayreuth,Germany,1799
739,Cultural,0,50.17361111,7.694166667,Upper Middle Rhine Valley,Germany,1243
740,Cultural,0,54.3025,13.08527778,Historic Centres of Stralsund and Wismar,Germany,1244
741,Cultural,0,51.49138889,7.046111111,Zollverein Coal Mine Industrial Complex in Essen,Germany,1139
742,Cultural,0,52.15278,9.94389,St Mary's Cathedral and St Michael's Church at Hildesheim,Germany,1627
743,Cultural,0,47.68127778,10.90013889,Pilgrimage Church of Wies,Germany,1864
744,Cultural,0,51.86472,12.65278,Luther Memorials in Eisleben and Wittenberg,Germany,926
745,Cultural,0,51.8425,12.42083,Garden Kingdom of Dessau-Wörlitz,Germany,627
746,Cultural,0,50.77444444,6.084444444,Aachen Cathedral ,Germany,1953
747,Cultural,0,49.65369,8.56858,Abbey and Altenmünster of Lorsch,Germany,1865
748,Cultural,0,49.75,6.633333333,"Roman Monuments, Cathedral of St Peter and Church of Our Lady in Trier",Germany,420
749,Cultural,0,51.82,10.34,"Mines of Rammelsberg, Historic Town of Goslar and Upper Harz Water Management  System",Germany,1576
750,Cultural,0,-7.75222,110.49167,Prambanan Temple Compounds,Indonesia,762
751,Cultural,0,24.8833333333,74.6461111111,Hill Forts of Rajasthan,India,1947
752,Cultural,0,50.9747777778,11.3295,"Bauhaus and its Sites in Weimar, Dessau and Bernau",Germany,2158
753,Cultural,0,53.86667,10.69167,Hanseatic City of Lübeck,Germany,1706
754,Cultural,0,47.71927778,16.72272222,Fertö / Neusiedlersee Cultural Landscape,Hungary,913
755,Cultural,0,51.1548055556,11.804,Naumburg Cathedral,Germany,2288
756,Cultural,0,50.96677778,10.307,Wartburg Castle,Germany,1048
757,Cultural,0,49.24444,6.85,Völklingen Ironworks,Germany,813
758,Cultural,0,52.4483333333,13.45,Berlin Modernism Housing Estates,Germany,1416
759,Cultural,0,51.57930556,14.72644444,Muskauer Park / Park Mu?akowski,Germany,1307
760,Cultural,0,15.31444,76.47167,Group of Monuments at Hampi,India,1932
761,Cultural,0,11.51028,76.93583,Mountain Railways of India,India,1540
762,Cultural,0,49.89166667,10.88888889,Town of Bamberg,Germany,742
763,Cultural,0,50.9775,11.32861,Classical Weimar,Germany,997
764,Cultural,0,12.61667,80.19167,Group of Monuments at Mahabalipuram,India,277
765,Cultural,0,10.78305556,79.1325,Great Living Chola Temples,India,280
766,Cultural,0,38.4,22.75,"Monasteries of Daphni, Hosios Loukas and Nea Moni of Chios",Greece,632
767,Cultural,0,25.1366666667,85.4438888889,"Archaeological Site of Nalanda Mahavihara at Nalanda, Bihar",India,2089
768,Cultural,0,37.97087,23.72618,"Acropolis, Athens",Greece,467
769,Cultural,0,40.47139,22.31833,Archaeological Site of Aigai (modern name Vergina),Greece,923
770,Cultural,0,37.43498,21.89694,Temple of Apollo Epicurius at Bassae,Greece,452
771,Cultural,0,28.6555555556,77.2408333333,Red Fort Complex,India,1460
772,Cultural,0,37.66666667,23.11666667,Sanctuary of Asklepios at Epidaurus,Greece,571
773,Cultural,0,38.48149,22.49617,Archaeological Site of Delphi,Greece,453
774,Cultural,0,27.17417,78.04222,Taj Mahal,India,282
775,Cultural,0,26.9078611111,75.7872222222,"Jaipur City, Rajasthan",India,2309
776,Cultural,0,14.56666667,-90.66666667,Antigua Guatemala,Guatemala,69
777,Cultural,0,64.25380556,-21.03725,Þingvellir National Park,Iceland,1333
778,Cultural,0,19.57361,-72.24417,"National History Park – Citadel, Sans Souci, Ramiers",Haiti,199
779,Cultural,0,41.90216,12.45736,Vatican City,Holy See,320
780,Cultural,0,14.85,-89.13333,Maya Site of Copan,Honduras,141
781,Cultural,0,47.55889,17.78444,Millenary Benedictine Abbey of Pannonhalma and its Natural Environment,Hungary,893
782,Cultural,0,47.99444,19.52917,Old Village of Hollók? and its Surroundings,Hungary,464
783,Cultural,0,47.48242,19.07067,"Budapest, including the Banks of the Danube, the Buda Castle Quarter and Andrássy Avenue",Hungary,462
784,Cultural,0,47.59458,21.15678,Hortobágy National Park - the <i>Puszta</i>,Hungary,552
785,Cultural,0,46.07444,18.22778,Early Christian Necropolis of Pécs (Sopianae),Hungary,1004
786,Cultural,0,15.27059,-89.04025,Archaeological Park and Ruins of Quirigua,Guatemala,167
787,Cultural,0,49.79278,9.93889,Würzburg Residence with the Court Gardens and Residence Square,Germany,1735
788,Cultural,0,40.63833,22.965,Paleochristian and Byzantine Monuments of Thessalonika,Greece,528
789,Cultural,0,23.8588888889,72.1016666667,"Rani-ki-Vav (the Queen’s Stepwell) at Patan, Gujarat",India,2008
790,Cultural,0,47.69872222,9.061305556,Monastic Island of Reichenau,Germany,1138
791,Cultural,0,51.3158333333,9.3930555556,Bergpark Wilhelmshöhe,Germany,1875
792,Cultural,0,24.69528,84.99389,Mahabodhi Temple Complex at Bodh Gaya,India,1231
793,Cultural,0,26.9247222222,75.825,"The Jantar Mantar, Jaipur",India,1677
794,Cultural,0,6.4011111111,-1.6258333333,Asante Traditional Buildings,Ghana,39
795,Cultural,0,27.18333333,78.03333333,Agra Fort,India,281
796,Cultural,0,5.39103,-0.49361,"Forts and Castles, Volta, Greater Accra, Central and Western Regions",Ghana,38
797,Cultural,0,24.85222,79.92222,Khajuraho Group of Monuments,India,267
798,Cultural,0,36.44722,28.22778,Medieval City of Rhodes,Greece,574
799,Cultural,0,23.0263888889,72.5880555556,Historic City of Ahmadabad,India,2144
800,Cultural,0,37.4,25.26667,Delos,Greece,620
801,Cultural,0,39.6239413889,19.9275,Old Town of Corfu,Greece,1477
802,Cultural,0,37.3,26.55,The Historic Centre (Chorá) with the Monastery of Saint-John the Theologian and the Cave of the Apocalypse on the Island of Pátmos,Greece,1098
803,Cultural,0,37.08056,22.36667,Archaeological Site of Mystras,Greece,595
804,Cultural,0,37.69083,26.94333,Pythagoreion and Heraion of Samos,Greece,703
805,Cultural,0,37.65,21.66666667,Archaeological Site of Olympia,Greece,603
806,Cultural,0,41.0147222222,24.2852777778,Archaeological Site of Philippi,Greece,2109
807,Cultural,0,37.73333333,22.75,Archaeological Sites of Mycenae and Tiryns,Greece,1097
808,Cultural,0,23.47944,77.73972,Buddhist Monuments at Sanchi,India,613
809,Cultural,0,27.09444,77.66417,Fatehpur Sikri,India,285
810,Cultural,0,22.92777778,77.58333333,Rock Shelters of Bhimbetka,India,1079
811,Cultural,0,49.00083,8.81306,Maulbronn Monastery Complex,Germany,642
812,Cultural,0,51.7782777778,9.41025,Carolingian Westwork and Civitas Corvey,Germany,1990
813,Cultural,0,29.93444,52.89028,Persepolis,Iran (Islamic Republic of),123
814,Cultural,0,45.18405556,0.722944444,Routes of Santiago de Compostela in France,France,1019
815,Cultural,0,43.61138889,1.416388889,Canal du Midi,France,910
816,Cultural,0,47.39889,0.70278,The Loire Valley between Sully-sur-Loire and Chalonnes,France,2250
817,Cultural,0,47.08222222,2.398333333,Bourges Cathedral,France,1952
818,Cultural,0,30.5938888889,61.3277777778,Shahr-i Sokhta,Iran (Islamic Republic of),2000
819,Cultural,0,36.60388889,47.235,Takht-e Soleyman,Iran (Islamic Republic of),1254
820,Cultural,0,32.65745,51.6777777777,"Meidan Emam, Esfahan",Iran (Islamic Republic of),125
821,Cultural,0,38.9788888889,45.4733333333,Armenian Monastic Ensembles of Iran,Iran (Islamic Republic of),1542
822,Cultural,0,45.76722,4.83333,Historic Site of Lyon,France,1023
823,Cultural,0,44.89472222,-0.155277778,Jurisdiction of Saint-Emilion,France,1088
824,Cultural,0,30.1666666667,53.1666666667,The Persian Garden,Iran (Islamic Republic of),1768
825,Cultural,0,-16.8414,-151.3723777778,Taputapu?tea,France,2155
826,Cultural,0,47.0580555556,4.8644444444,"The Climats, terroirs of Burgundy",France,2016
827,Cultural,0,-7.4,110.8166667,Sangiran Early Man Site,Indonesia,701
828,Cultural,0,43.9283333333,2.1425,Episcopal City of Albi,France,1663
829,Cultural,0,50.4625,3.5461111111,Nord-Pas de Calais Mining Basin,France,1776
830,Cultural,0,-0.7666255556,100.7378833333,Ombilin Coal Mining Heritage of Sawahlunto,Indonesia,2311
831,Cultural,0,44.3875,4.4161111111,"Decorated Cave of Pont d’Arc, known as Grotte Chauvet-Pont d’Arc, Ardèche",France,1974
832,Cultural,0,49.49278,0.1075,"Le Havre, the City Rebuilt by Auguste Perret",France,1358
833,Cultural,0,-7.60778,110.20361,Borobudur Temple Compounds,Indonesia,700
834,Cultural,0,49.0775,3.9461111111,"Champagne Hillsides, Houses and Cellars",France,2026
835,Cultural,0,30.19383,53.16729,Pasargadae,Iran (Islamic Republic of),1284
836,Cultural,0,48.5844444444,7.7488888889,"Strasbourg, Grande-Île and <em>Neustadt</em>",France,2156
837,Cultural,0,34.3883333333,47.4366666666,Bisotun,Iran (Islamic Republic of),1399
838,Cultural,0,46.56472,0.86611,Abbey Church of Saint-Savin sur Gartempe,France,2118
839,Cultural,0,48.69361111,6.183333333,"Place Stanislas, Place de la Carrière and Place d'Alliance in Nancy",France,2186
840,Cultural,0,47.63944,4.38911,Cistercian Abbey of Fontenay,France,1565
841,Cultural,0,48.40194444,2.698055556,Palace and Park of Fontainebleau,France,178
842,Cultural,0,32.0186111111,48.8358333333,Shushtar Historical Hydraulic System,Iran (Islamic Republic of),1599
843,Cultural,0,34.29,58.6544444444,The Persian Qanat,Iran (Islamic Republic of),2096
844,Cultural,0,43.95277778,4.806111111,"Historic Centre of Avignon: Papal Palace, Episcopal Ensemble and Avignon Bridge",France,254
845,Cultural,0,43.21055556,2.358888889,Historic Fortified City of Carcassonne,France,393
846,Cultural,0,45.0575,1.17,Prehistoric Sites and Decorated Caves of the Vézère Valley,France,91
847,Cultural,0,47.46638889,3.748333333,"Vézelay, Church and Hill",France,1572
848,Cultural,0,48.805,2.119444444,Palace and Park of Versailles,France,1571
849,Cultural,0,48.63556,-1.51056,Mont-Saint-Michel and its Bay,France,2317
850,Cultural,0,36.43528,48.79667,Soltaniyeh,Iran (Islamic Republic of),1365
851,Cultural,0,48.4475,1.487222222,Chartres Cathedral,France,1719
852,Cultural,0,47.2361111111,6.0269444444,Fortifications of Vauban,France,1514
853,Cultural,0,44.13572222,4.808416667,"Roman Theatre and its Surroundings and the ""Triumphal Arch"" of Orange",France,1568
854,Cultural,0,49.895,2.301666667,Amiens Cathedral,France,1951
855,Cultural,0,48.85833333,2.294166667,"Paris, Banks of the Seine",France,710
856,Cultural,0,48.15,21.35,Tokaj Wine Region Historic Cultural Landscape,Hungary,1240
857,Cultural,0,51.78333,11.15,"Collegiate Church, Castle and Old Town of Quedlinburg",Germany,629
858,Cultural,0,42.91639,43.01139,Upper Svaneti,Georgia,839
859,Cultural,0,52.4,13.03333333,Palaces and Parks of Potsdam and Berlin,Germany,624
860,Cultural,0,13.31616667,-16.35719444,Kunta Kinteh Island and Related Sites,Gambia (the),897
861,Cultural,0,42.2947222222,42.7683333333,Gelati Monastery,Georgia,2243
862,Cultural,0,49.31666667,8.443055556,Speyer Cathedral,Germany,186
863,Cultural,0,41.84389,44.71639,Historical Monuments of Mtskheta,Georgia,2251
864,Cultural,0,49.25333333,4.032777778,"Cathedral of Notre-Dame, Former Abbey of Saint-Rémi and Palace of Tau, Reims",France,711
865,Cultural,0,50.82502778,6.909777778,Castles of Augustusburg and Falkenlust at Brühl,Germany,322
866,Cultural,0,44.8388888889,-0.5722222222,"Bordeaux, Port of the Moon",France,1433
867,Cultural,0,-8.2591666667,115.4027777778,Cultural Landscape of Bali Province: the <em>Subak</em> System as a Manifestation of the <em>Tri Hita Karana</em> Philosophy,Indonesia,1836
868,Cultural,0,50.94111111,6.957222222,Cologne Cathedral,Germany,1628
869,Cultural,0,48.55972222,3.298888889,"Provins, Town of Medieval Fairs",France,1025
870,Mixed,0,17.9899611111,-97.1871527778,Tehuacán-Cuicatlán Valley: originary habitat of Mesoamerica,Mexico,2287
871,Mixed,0,31.5622222222,47.6577777778,The Ahwar of Southern Iraq: Refuge of Biodiversity and the Relict Landscape of the Mesopotamian Cities,Iraq,2042
872,Mixed,0,14.33333,-3.41667,Cliff of Bandiagara (Land of the Dogons),Mali,602
873,Mixed,0,-25.33333333,131.0,Ulu<U>r</U>u-Kata Tju<U>t</U>a National Park,Australia,519
874,Mixed,0,-34.0,143.0,Willandra Lakes Region,Australia,185
875,Mixed,0,-39.29083333,175.5622222,Tongariro National Park,New Zealand,487
876,Mixed,0,39.71667,21.63333,Meteora,Greece,527
877,Mixed,0,36.26667,117.1,Mount Taishan,China,507
878,Mixed,0,40.26667,24.21667,Mount Athos,Greece,526
879,Mixed,0,7.246925,134.3525,Rock Islands Southern Lagoon,Palau,1801
880,Mixed,0,29.6397222222,35.4338888889,Wadi Rum Protected Area,Jordan,1758
881,Mixed,0,-41.58333333,145.4166667,Tasmanian Wilderness,Australia,1950
882,Mixed,0,20.2566666667,105.8963888889,Trang An Landscape Complex,Viet Nam,2179
883,Mixed,0,0.5252777778,-72.7972222222,Chiribiquete National Park – “The Maloca of the Jaguar”,Colombia,2213
884,Mixed,0,-3.18722,35.54083,Ngorongoro Conservation Area,United Republic of Tanzania,1639
885,Mixed,0,17.0416666667,21.8627777778,Ennedi Massif: Natural and Cultural Landscape,Chad,2091
886,Mixed,0,25.5,9.0,Tassili n'Ajjer,Algeria,198
887,Mixed,0,38.66667,34.85,Göreme National Park and the Rock Sites of Cappadocia,Turkey,410
888,Mixed,0,51.8264166667,-95.4112777778,Pimachiowin Aki,Canada,2214
889,Mixed,0,27.7647222222,88.3772222222,Khangchendzonga National Park,India,2105
890,Mixed,0,38.91113889,1.435194444,"Ibiza, Biodiversity and Culture",Spain,481
891,Mixed,0,17.21666667,-89.61666667,Tikal National Park,Guatemala,68
892,Mixed,0,37.92389,29.12333,Hierapolis-Pamukkale,Turkey,564
893,Mixed,0,41.06925,20.6460555556,Natural and Cultural Heritage of the Ohrid region,Albania,2313
894,Mixed,0,29.5449,103.76925,"Mount Emei Scenic Area, including Leshan Giant Buddha Scenic Area",China,922
895,Mixed,0,-13.11666667,-72.58333333,Historic Sanctuary of Machu Picchu,Peru,305
896,Mixed,0,30.16667,118.18333,Mount Huangshan,China,1933
897,Mixed,0,-23.0186055556,-44.6853694444,Paraty and Ilha Grande – Culture and Biodiversity,Brazil,2264
898,Mixed,0,-7.75,-77.25,Río Abiseo National Park,Peru,644
899,Mixed,0,25.34907,-170.14582,Papah?naumoku?kea,United States of America,1672
900,Mixed,0,-29.7652777778,29.1230555556,Maloti-Drakensberg Park,Lesotho,1885
901,Mixed,0,57.81722222,-8.576666667,St Kilda,United Kingdom of Great Britain and Northern Ireland,2202
902,Mixed,0,18.0775,-76.5711111111,Blue and John Crow Mountains ,Jamaica,2015
903,Mixed,0,27.71667,117.68333,Mount Wuyi,China,2245
904,Mixed,0,67.33333,17.58333,Laponian Area,Sweden,916
905,Mixed,0,42.68542,-0.0005,Pyrénées - Mont Perdu,France,915
906,Mixed,0,-12.83333333,132.8333333,Kakadu National Park,Australia,1872
907,Mixed,0,-0.5,11.5,Ecosystem and Relict Cultural Landscape of Lopé-Okanda,Gabon,1547
908,Mixed,0,18.0530277778,-89.7372833333,"Ancient Maya City and Protected Tropical Forests of Calakmul, Campeche",Mexico,1963
909,Natural,0,-25.68333,-54.43333,Iguaçu National Park,Brazil,408
910,Natural,0,-19.08333333,138.7166667,Australian Fossil Mammal Sites (Riversleigh / Naracoorte),Australia,826
911,Natural,0,64.577363,-16.8815404444,Vatnajökull National Park - dynamic nature of fire and ice,Iceland,2301
912,Natural,0,-6.75,105.3333333,Ujung Kulon National Park,Indonesia,722
913,Natural,0,-24.16667,-48.0,Atlantic Forest South-East Reserves,Brazil,1045
914,Natural,0,37.74611111,-119.5966667,Yosemite National Park,United States of America,347
915,Natural,0,37.16361,9.67472,Ichkeul National Park,Tunisia,11
916,Natural,0,63.3030555556,-20.6022222222,Surtsey,Iceland,1532
917,Natural,1,-9.0,37.4,Selous Game Reserve,United Republic of Tanzania,1924
918,Natural,0,-2.33333,34.56667,Serengeti National Park,United Republic of Tanzania,174
919,Natural,0,30.71667,79.66667,Nanda Devi and Valley of Flowers National Parks  ,India,382
920,Natural,0,30.2161111111,58.8388888889,Lut Desert,Iran (Islamic Republic of),2095
921,Natural,0,-19.2833333333,22.9,Okavango Delta,Botswana,1976
922,Natural,0,38.765,72.3052777778,Tajik National Park (Mountains of the Pamirs),Tajikistan,1907
923,Natural,0,15.33333,98.91667,Thungyai-Huai Kha Khaeng Wildlife Sanctuaries,Thailand,699
924,Natural,0,-14.00569444,-47.68461111,Cerrado Protected Areas: Chapada dos Veadeiros and Emas National Parks,Brazil,1208
925,Natural,0,-15.81944444,29.40805556,"Mana Pools National Park, Sapi and Chewore Safari Areas",Zimbabwe,339
926,Natural,0,12.5,53.8333333333,Socotra Archipelago,Yemen,1548
927,Natural,0,-15.65,144.9666667,Wet Tropics of Queensland,Australia,565
928,Natural,0,-17.92453,25.85539,Mosi-oa-Tunya / Victoria Falls,Zimbabwe,593
929,Natural,0,14.33,102.05,Dong Phayayen-Khao Yai Forest Complex,Thailand,698
930,Natural,0,32.16666667,-104.3833333,Carlsbad Caverns National Park,United States of America,852
931,Natural,0,-16.5,-39.25,Discovery Coast Atlantic Forest Reserves,Brazil,1044
932,Natural,0,31.8333333333,77.5833333333,Great Himalayan National Park Conservation Area,India,2011
933,Natural,0,17.5372222222,106.15125,Phong Nha-Ke Bang National Park,Viet Nam,2059
934,Natural,0,-18.28611111,147.7,Great Barrier Reef,Australia,172
935,Natural,0,16.75,-87.05833333,Belize Barrier Reef Reserve System,Belize,900
936,Natural,0,-3.06667,37.36667,Kilimanjaro National Park,United Republic of Tanzania,466
937,Natural,0,21.95,89.18333,The Sundarbans,Bangladesh,943
938,Natural,0,-50.0,-73.24944,Los Glaciares National Park,Argentina,160
939,Natural,0,-24.3666666667,-128.333333333,Henderson Island,United Kingdom of Great Britain and Northern Ireland,566
940,Natural,0,-28.25,150.05,Gondwana Rainforests of Australia,Australia,422
941,Natural,0,-4.75,137.83333,Lorentz National Park,Indonesia,1118
942,Natural,1,-2.5,101.5,Tropical Rainforest Heritage of Sumatra,Indonesia,1344
943,Natural,0,46.6130555556,12.1630555556,The Dolomites,Italy,1609
944,Natural,0,-42.8528,-71.8728,Los Alerces National Park,Argentina,2172
945,Natural,0,36.10083333,-112.0905556,Grand Canyon National Park,United States of America,81
946,Natural,0,37.7561111111,14.9966666667,Mount Etna,Italy,1910
947,Natural,0,50.70555556,-2.989888889,Dorset and East Devon Coast,United Kingdom of Great Britain and Northern Ireland,1202
948,Natural,0,47.74833333,-123.4488889,Olympic National Park,United States of America,169
949,Natural,0,37.18722222,-86.10305556,Mammoth Cave National Park,United States of America,168
950,Natural,0,41.37388889,-123.9980556,Redwood National and State Parks,United States of America,147
951,Natural,0,55.25,-6.485277778,Giant's Causeway and Causeway Coast,United Kingdom of Great Britain and Northern Ireland,2178
952,Natural,0,-30.0,-68.0,Ischigualasto / Talampaya Natural Parks,Argentina,1130
953,Natural,1,25.55444444,-80.99638889,Everglades National Park,United States of America,82
954,Natural,0,44.46056,-110.82778,Yellowstone National Park,United States of America,31
955,Natural,0,-8.54333,119.48944,Komodo National Park,Indonesia,723
956,Natural,0,-54.59472222,158.8955556,Macquarie Island,Australia,747
957,Natural,0,35.59305556,-83.43555556,Great Smoky Mountains National Park,United States of America,289
958,Natural,0,-14.26667,-60.86667,Noel Kempff Mercado National Park,Bolivia (Plurinational State of),1131
959,Natural,0,-42.5,-64.0,Península Valdés,Argentina,1092
960,Natural,0,19.40083333,-155.1236111,Hawaii Volcanoes National Park,United States of America,472
961,Natural,0,-17.5,128.5,Purnululu National Park,Australia,1272
962,Natural,0,38.48786111,14.94558333,Isole Eolie (Aeolian Islands),Italy,1061
963,Natural,0,11.8841666667,2.4877777778,W-Arly-Pendjari Complex,Benin,2129
964,Natural,0,20.9,107.1,Ha Long Bay,Viet Nam,796
965,Natural,0,-33.7,150.0,Greater Blue Mountains Area,Australia,1071
966,Natural,0,37.4214722222,55.7242777778,Hyrcanian Forests,Iran (Islamic Republic of),2273
967,Natural,0,-25.21666667,153.1333333,Fraser Island,Australia,748
968,Natural,0,21.945,88.89583333,Sundarbans National Park,India,524
969,Natural,0,27.15888889,77.50861111,Keoladeo National Park,India,387
970,Natural,0,-25.51805556,-54.13333333,Iguazu National Park,Argentina,340
971,Natural,0,26.725,91.03055556,Manas Wildlife Sanctuary,India,385
972,Natural,0,-31.56555556,159.0883333,Lord Howe Island Group,Australia,206
973,Natural,0,-40.32472222,-9.928611111,Gough and Inaccessible Islands,United Kingdom of Great Britain and Northern Ireland,874
974,Natural,0,8.5297222222,77.2497222222,Western Ghats,India,1921
975,Natural,0,-53.1,73.5,Heard and McDonald Islands,Australia,683
976,Natural,0,26.66666667,93.41666667,Kaziranga National Park,India,384
977,Natural,0,5.33333,-61.5,Canaima National Park,Venezuela (Bolivarian Republic of),829
978,Natural,0,-1.080555556,29.66138889,Bwindi Impenetrable National Park,Uganda,806
979,Natural,0,0.223611111,29.92416667,Rwenzori Mountains National Park,Uganda,808
980,Natural,0,52.7275,23.9811111111,Bia?owie?a Forest,Belarus,2005
981,Natural,0,-25.48611111,113.4361111,"Shark Bay, Western Australia",Australia,684
982,Natural,0,-22.5625,113.8102777778,Ningaloo Coast,Australia,1763
983,Natural,0,27.96528,86.91306,Sagarmatha National Park,Nepal,132
984,Natural,0,-17.71667,-57.38333,Pantanal Conservation Area,Brazil,1164
985,Natural,1,4.0,29.25,Garamba National Park,Democratic Republic of the Congo,149
986,Natural,0,9.0,-4.0,Comoé National Park,Côte d'Ivoire,252
987,Natural,0,5.75,-7.66667,Taï National Park,Côte d'Ivoire,216
988,Natural,1,7.60318,-8.39097,Mount Nimba Strict Nature Reserve,Côte d'Ivoire,173
989,Natural,0,27.79222,-114.22778,Whale Sanctuary of El Vizcaino,Mexico,652
990,Natural,0,19.38333,-87.79167,Sian Ka'an,Mexico,473
991,Natural,0,53.5286111111,8.5561111111,Wadden Sea,Germany,1967
992,Natural,0,20.45,-75.0,Alejandro de Humboldt National Park,Cuba,989
993,Natural,0,32.76666667,-17.0,Laurisilva of Madeira,Portugal,1090
994,Natural,0,19.88333,-77.63333,Desembarco del Granma National Park,Cuba,1041
995,Natural,0,20.23472,-16.10889,Banc d'Arguin National Park,Mauritania,590
996,Natural,0,33.4688888889,126.7202777777,Jeju Volcanic Island and Lava Tubes,Republic of Korea,2314
997,Natural,0,44.87778,15.61444,Plitvice Lakes National Park,Croatia,106
998,Natural,0,10.85,-85.61666667,Area de Conservación Guanacaste,Costa Rica,1083
999,Natural,1,0.916666667,29.16666667,Virunga National Park,Democratic Republic of the Congo,67
1000,Natural,0,9.407083333,-82.93880556,Talamanca Range-La Amistad Reserves / La Amistad National Park,Costa Rica,226
1001,Natural,0,4.13333,114.91667,Gunung Mulu National Park,Malaysia,1183
1002,Natural,0,45.08333,29.5,Danube Delta,Romania,695
1003,Natural,0,2.6094444444,16.5541666667,Sangha Trinational,Congo,1920
1004,Natural,0,6.25,116.5,Kinabalu Park,Malaysia,1182
1005,Natural,0,-14.03333,34.88333,Lake Malawi National Park,Malawi,323
1006,Natural,0,69.0469444444,94.1580555556,Putorana Plateau,Russian Federation,1644
1007,Natural,0,49.9302222222,115.4254444444,Landscapes of Dauria,Russian Federation,2150
1008,Natural,0,60.6666666667,127.0,Lena Pillars Nature Park,Russian Federation,2116
1009,Natural,0,-18.66667,44.75,Tsingy de Bemaraha Strict Nature Reserve,Madagascar,576
1010,Natural,0,7.666666667,-77.0,Los Katíos National Park,Colombia,841
1011,Natural,0,3.9666666667,-81.6166666666,Malpelo Fauna and Flora Sanctuary,Colombia,1393
1012,Natural,0,71.18888889,-179.7152778,Natural System of Wrangel Island Reserve,Russian Federation,1194
1013,Natural,0,46.6833333333,136.6611111111,Central Sikhote-Alin,Russian Federation,2211
1014,Natural,1,-14.4597222222,49.7025,Rainforests of the Atsinanana,Madagascar,1434
1015,Natural,0,5.533333333,-87.06666667,Cocos Island National Park,Costa Rica,969
1016,Natural,1,2.0,28.5,Okapi Wildlife Reserve,Democratic Republic of the Congo,849
1017,Natural,1,-2.0,21.0,Salonga National Park,Democratic Republic of the Congo,314
1018,Natural,1,-2.5,28.75,Kahuzi-Biega National Park,Democratic Republic of the Congo,150
1019,Natural,0,-49.3803611111,69.3528055556,French Austral Lands and Seas,France,2300
1020,Natural,0,-24.8852777778,15.4077777778,Namib Sand Sea,Namibia,1915
1021,Natural,0,63.3,21.3,High Coast / Kvarken Archipelago,Finland,1050
1022,Natural,0,42.32519444,8.628833333,"Gulf of Porto: Calanche of Piana, Gulf of Girolata, Scandola Reserve",France,288
1023,Natural,0,-45.03602778,167.3196111,Te Wahipounamu – South West New Zealand,New Zealand,648
1024,Natural,0,-50.75,166.1044444,New Zealand Sub-Antarctic Islands,New Zealand,1029
1025,Natural,1,18.0,9.0,Air and Ténéré Natural Reserves,Niger,678
1026,Natural,0,13.1833333333,38.0666666667,Simien National Park,Ethiopia,12
1027,Natural,0,62.11667,7.16667,West Norwegian Fjords – Geirangerfjord and Nærøyfjord,Norway,1372
1028,Natural,0,43.133,19.0166,Durmitor National Park,Montenegro,109
1029,Natural,0,45.7793888889,2.9651111111,Chaîne des Puys - Limagne fault tectonic arena,France,2257
1030,Natural,0,50.275,92.71972222,Uvs Nuur Basin,Mongolia,909
1031,Natural,0,32.0,-113.9166666667,El Pinacate and Gran Desierto de Altar Biosphere Reserve,Mexico,1858
1032,Natural,0,29.33333,30.18333,Wadi Al-Hitan (Whale Valley),Egypt,1363
1033,Natural,0,-20.4119444444,164.5663888889,Lagoons of New Caledonia: Reef Diversity and Associated Ecosystems,France,1531
1034,Natural,0,-1.83333,-78.33333,Sangay National Park,Ecuador,290
1035,Natural,0,-0.81667,-91.0,Galápagos Islands,Ecuador,4
1036,Natural,0,55.2672222222,12.4233333333,Stevns Klint,Denmark,1973
1037,Natural,0,10.16666667,118.9166667,Puerto-Princesa Subterranean River National Park,Philippines,773
1038,Natural,0,6.7171694444,126.1734305556,Mount Hamiguitan Range Wildlife Sanctuary,Philippines,2010
1039,Natural,0,8.9533333333,119.8675,Tubbataha Reefs Natural Park,Philippines,1554
1040,Natural,0,-21.0994444444,55.48,"Pitons, cirques and remparts of Reunion Island",France,1604
1041,Natural,0,69.13333333,-49.5,Ilulissat Icefjord,Denmark,1330
1042,Natural,0,49.91667,8.75389,Messel Pit Fossil Site,Germany,1733
1043,Natural,0,-12.25,-71.75,Manú National Park,Peru,1705
1044,Natural,0,-9.33333,-77.4,Huascarán National Park,Peru,379
1045,Natural,0,15.26666667,-61.28333333,Morne Trois Pitons National Park,Dominica,962
1046,Natural,1,27.62667,-112.54583,Islands and Protected Areas of the Gulf of California,Mexico,1873
1047,Natural,0,7.736111111,-77.54722222,Darien National Park,Panama,177
1048,Natural,0,19.6063888889,-100.2416666667,Monarch Butterfly Biosphere Reserve,Mexico,1521
1049,Natural,0,7.433,-81.766,Coiba National Park and its Special Zone of Marine Protection,Panama,1319
1050,Natural,0,18.7880555556,-110.9752777778,Archipiélago de Revillagigedo,Mexico,2102
1051,Natural,0,50.46666667,86.0,Golden Mountains of Altai,Russian Federation,907
1052,Natural,0,63.6258333333,58.9525,Virgin Komi Forests,Russian Federation,850
1053,Natural,0,44.0,40.0,Western Caucasus,Russian Federation,1052
1054,Natural,0,27.5,84.33333,Chitwan National Park,Nepal,318
1055,Natural,0,19.055,20.5055555556,Lakes of Ounianga,Chad,1824
1056,Natural,1,9.0,21.5,Manovo-Gounda St Floris National Park,Central African Republic,553
1057,Natural,0,28.2713888889,-16.6436111111,Teide National Park,Spain,1435
1058,Natural,0,48.99605556,-113.9041667,Waterton Glacier International Peace Park,"Canada,United States of America",407
1059,Natural,0,61.19758333,-140.9919722,Kluane / Wrangell-St. Elias / Glacier Bay / Tatshenshini-Alsek,"Canada,United States of America",78
1060,Natural,0,27.7183333333,142.0997222222,Ogasawara Islands,Japan,1770
1061,Natural,0,48.105,-66.35305556,Miguasha National Park,Canada,812
1062,Natural,0,49.6125,-57.53138889,Gros Morne National Park,Canada,483
1063,Natural,0,59.35833333,-112.2933333,Wood Buffalo National Park,Canada,286
1064,Natural,0,30.33333333,130.5333333,Yakushima,Japan,783
1065,Natural,0,45.7097222222,-64.4358333333,Joggins Fossil Cliffs,Canada,1516
1066,Natural,0,51.42472222,-116.4797222,Canadian Rocky Mountain Parks,Canada,342
1067,Natural,0,43.94944,144.96583,Shiretoko,Japan,1370
1068,Natural,0,46.635,-53.2111111111,Mistaken Point,Canada,2083
1069,Natural,0,61.54722222,-125.5894444,Nahanni National Park,Canada,27
1070,Natural,0,7.45245,80.8021,Central Highlands of Sri Lanka,Sri Lanka,1650
1071,Natural,0,-3.857944444,-32.42511111,Brazilian Atlantic Islands: Fernando de Noronha and Atol das Rocas Reserves,Brazil,1166
1072,Natural,0,-2.333333333,-62.00833333,Central Amazon Conservation Complex,Brazil,1163
1073,Natural,0,48.47573,20.48687,Caves of Aggtelek Karst and Slovak Karst,Hungary,1624
1074,Natural,0,46.5,8.0333333333,Swiss Alps Jungfrau-Aletsch,Switzerland,1211
1075,Natural,0,45.8888888889,8.9138888889,Monte San Giorgio,Italy,1643
1076,Natural,0,41.7427222222,23.4304722222,Pirin National Park,Bulgaria,1641
1077,Natural,0,28.4219444444,106.0425,China Danxia,China,1676
1078,Natural,1,15.74444444,-84.675,Río Plátano Biosphere Reserve,Honduras,217
1079,Natural,0,40.47,140.13,Shirakami-Sanchi,Japan,784
1080,Natural,0,4.0,-56.5,Central Suriname Nature Reserve,Suriname,1187
1081,Natural,0,3.0,13.0,Dja Faunal Reserve,Cameroon,470
1082,Natural,0,19.7361111111,37.4430555556,Sanganeb Marine National Park and Dungonab Bay – Mukkawar Island Marine National Park,Sudan,2177
1083,Natural,0,50.76777778,-111.4922222,Dinosaur Provincial Park,Canada,75
1084,Natural,0,6.416666667,80.5,Sinharaja Forest Reserve,Sri Lanka,468
1085,Natural,0,44.11444,27.07806,Srebarna Nature Reserve,Bulgaria,1621
1086,Natural,0,46.9166666667,9.25,Swiss Tectonic Arena Sardona,Switzerland,1497
1087,Natural,0,28.9158333333,118.0644444444,Mount Sanqingshan National Park,China,1523
1088,Natural,0,28.12625,-17.23722222,Garajonay National Park,Spain,436
1089,Natural,0,53.17361111,107.6625,Lake Baikal,Russian Federation,889
1090,Natural,0,56.33333333,158.5,Volcanoes of Kamchatka,Russian Federation,902
1091,Natural,0,13.80708333,-61.07036111,Pitons Management Area,Saint Lucia,1341
1092,Natural,0,32.75417,103.82222,Huanglong Scenic and Historic Interest Area,China,758
1093,Natural,0,33.08333,103.91667,Jiuzhaigou Valley Scenic and Historic Interest Area,China,757
1094,Natural,0,16.5,-16.16667,Djoudj National Bird Sanctuary,Senegal,28
1095,Natural,1,13.06667,-12.71667,Niokolo-Koba National Park,Senegal,171
1096,Natural,0,-4.32917,55.7375,Vallée de Mai Nature Reserve,Seychelles,291
1097,Natural,0,-9.416666667,46.41666667,Aldabra Atoll,Seychelles,205
1098,Natural,0,0.0,0.0,Western Tien-Shan,Kyrgyzstan,2079
1099,Natural,0,-3.6497222222,-172.8575,Phoenix Islands Protected Area,Kiribati,1683
1100,Natural,0,49.0097222222,22.3388888889,Ancient and Primeval Beech Forests of the Carpathians and Other Regions of Europe,Slovakia,2152
1101,Natural,0,-0.155,37.3155555556,Mount Kenya National Park/Natural Forest,Kenya,1902
1102,Natural,1,3.051305556,36.50366667,Lake Turkana National Parks,Kenya,947
1103,Natural,0,45.66667,14.0,Škocjan Caves,Slovenia,450
1104,Natural,1,-11.68333,160.33333,East Rennell,Solomon Islands,1005
1105,Natural,0,-25.9738888889,31.0138888889,Barberton Makhonjwa Mountains,South Africa,2240
1106,Natural,0,41.9683333333,80.3541666667,Xinjiang Tianshan,China,1876
1107,Natural,0,27.895,98.40638889,Three Parallel Rivers of Yunnan Protected Areas,China,1731
1108,Natural,0,50.4333333333,69.1888888889,Saryarka – Steppe and Lakes of Northern Kazakhstan,Kazakhstan,1543
1109,Natural,0,36.9477,-6.358861,Doñana National Park,Spain,810
1110,Natural,0,32.9319444444,121.0168138889,Migratory Bird Sanctuaries along the Coast of Yellow Sea-Bohai Gulf of China (Phase I),China,2304
1111,Natural,0,24.9233333333,110.3544444444,South China Karst,China,1965
1112,Natural,0,29.33333,110.5,Wulingyuan Scenic and Historic Interest Area,China,760
1113,Natural,0,35.3802777778,92.4391666667,Qinghai Hoh Xil,China,2141
1114,Natural,0,-27.83889,32.55,iSimangaliso Wetland Park,South Africa,1067
1115,Natural,0,30.8333333333,103.0,"Sichuan Giant Panda Sanctuaries - Wolong, Mt Siguniang and Jiajin Mountains ",China,1390
1116,Natural,0,-34.3611111111,18.475,Cape Floral Region Protected Areas,South Africa,2013
1117,Natural,0,-0.4425,36.24,Kenya Lake System in the Great Rift Valley,Kenya,1749
1118,Natural,0,-26.86,27.26,Vredefort Dome,South Africa,1342
1119,Natural,0,27.8955555556,108.68,Fanjingshan,China,2224
1120,Natural,0,31.4697222222,110.2438888889,Hubei Shennongjia,China,2101
1121,Natural,0,24.6688888889,102.9772222222,Chengjiang Fossil Site,China,1803
